city_id,State,County,State Abbreviation,city_name_id,city_state,city,City,state_id,county_name,state_name,lat,lng
0,New York,Queens County,NY,"New York, New York, Queens County","New York, New York",New York,New York,NY,Queens,New York,40.6943,-73.9249
1,California,Los Angeles County,CA,"Los Angeles, California, Los Angeles County","Los Angeles, California",Los Angeles,Los Angeles,CA,Los Angeles,California,34.1141,-118.4068
2,Illinois,Cook County,IL,"Chicago, Illinois, Cook County","Chicago, Illinois",Chicago,Chicago,IL,Cook,Illinois,41.8375,-87.6866
3,Texas,Harris County,TX,"Houston, Texas, Harris County","Houston, Texas",Houston,Houston,TX,Harris,Texas,29.786,-95.3885
4,Pennsylvania,Philadelphia County,PA,"Philadelphia, Pennsylvania, Philadelphia County","Philadelphia, Pennsylvania",Philadelphia,Philadelphia,PA,Philadelphia,Pennsylvania,40.0077,-75.1339
5,Arizona,Maricopa County,AZ,"Phoenix, Arizona, Maricopa County","Phoenix, Arizona",Phoenix,Phoenix,AZ,Maricopa,Arizona,33.5722,-112.0892
6,Texas,Bexar County,TX,"San Antonio, Texas, Bexar County","San Antonio, Texas",San Antonio,San Antonio,TX,Bexar,Texas,29.4632,-98.5238
7,California,San Diego County,CA,"San Diego, California, San Diego County","San Diego, California",San Diego,San Diego,CA,San Diego,California,32.8313,-117.1222
8,Texas,Dallas County,TX,"Dallas, Texas, Dallas County","Dallas, Texas",Dallas,Dallas,TX,Dallas,Texas,32.7935,-96.7667
9,California,Santa Clara County,CA,"San Jose, California, Santa Clara County","San Jose, California",San Jose,San Jose,CA,Santa Clara,California,37.3012,-121.848
10,Texas,Travis County,TX,"Austin, Texas, Travis County","Austin, Texas",Austin,Austin,TX,Travis,Texas,30.3005,-97.7522
11,Indiana,Marion County,IN,"Indianapolis, Indiana, Marion County","Indianapolis, Indiana",Indianapolis,Indianapolis,IN,Marion,Indiana,39.7771,-86.1458
12,Florida,Duval County,FL,"Jacksonville, Florida, Duval County","Jacksonville, Florida",Jacksonville,Jacksonville,FL,Duval,Florida,30.3322,-81.6749
13,California,San Francisco County,CA,"San Francisco, California, San Francisco County","San Francisco, California",San Francisco,San Francisco,CA,San Francisco,California,37.7558,-122.4449
14,Ohio,Franklin County,OH,"Columbus, Ohio, Franklin County","Columbus, Ohio",Columbus,Columbus,OH,Franklin,Ohio,39.9862,-82.9855
15,North Carolina,Mecklenburg County,NC,"Charlotte, North Carolina, Mecklenburg County","Charlotte, North Carolina",Charlotte,Charlotte,NC,Mecklenburg,North Carolina,35.2083,-80.8303
16,Texas,Tarrant County,TX,"Fort Worth, Texas, Tarrant County","Fort Worth, Texas",Fort Worth,Fort Worth,TX,Tarrant,Texas,32.7817,-97.3474
17,Michigan,Wayne County,MI,"Detroit, Michigan, Wayne County","Detroit, Michigan",Detroit,Detroit,MI,Wayne,Michigan,42.3834,-83.1024
18,Texas,El Paso County,TX,"El Paso, Texas, El Paso County","El Paso, Texas",El Paso,El Paso,TX,El Paso,Texas,31.8476,-106.43
19,Tennessee,Shelby County,TN,"Memphis, Tennessee, Shelby County","Memphis, Tennessee",Memphis,Memphis,TN,Shelby,Tennessee,35.1087,-89.9663
20,Washington,King County,WA,"Seattle, Washington, King County","Seattle, Washington",Seattle,Seattle,WA,King,Washington,47.6211,-122.3244
21,Colorado,Denver County,CO,"Denver, Colorado, Denver County","Denver, Colorado",Denver,Denver,CO,Denver,Colorado,39.762,-104.8758
22,Massachusetts,Suffolk County,MA,"Boston, Massachusetts, Suffolk County","Boston, Massachusetts",Boston,Boston,MA,Suffolk,Massachusetts,42.3188,-71.0852
23,Tennessee,Davidson County,TN,"Nashville, Tennessee, Davidson County","Nashville, Tennessee",Nashville,Nashville,TN,Davidson,Tennessee,36.1715,-86.7842
24,Oklahoma,Oklahoma County,OK,"Oklahoma City, Oklahoma, Oklahoma County","Oklahoma City, Oklahoma",Oklahoma City,Oklahoma City,OK,Oklahoma,Oklahoma,35.4676,-97.5136
25,Kentucky,Jefferson County,KY,"Louisville, Kentucky, Jefferson County","Louisville, Kentucky",Louisville,Louisville,KY,Jefferson,Kentucky,38.1663,-85.6485
26,Oregon,Multnomah County,OR,"Portland, Oregon, Multnomah County","Portland, Oregon",Portland,Portland,OR,Multnomah,Oregon,45.5371,-122.65
27,Nevada,Clark County,NV,"Las Vegas, Nevada, Clark County","Las Vegas, Nevada",Las Vegas,Las Vegas,NV,Clark,Nevada,36.2333,-115.2654
28,Wisconsin,Milwaukee County,WI,"Milwaukee, Wisconsin, Milwaukee County","Milwaukee, Wisconsin",Milwaukee,Milwaukee,WI,Milwaukee,Wisconsin,43.0642,-87.9675
29,New Mexico,Bernalillo County,NM,"Albuquerque, New Mexico, Bernalillo County","Albuquerque, New Mexico",Albuquerque,Albuquerque,NM,Bernalillo,New Mexico,35.1054,-106.6465
30,Arizona,Pima County,AZ,"Tucson, Arizona, Pima County","Tucson, Arizona",Tucson,Tucson,AZ,Pima,Arizona,32.1541,-110.8787
31,California,Fresno County,CA,"Fresno, California, Fresno County","Fresno, California",Fresno,Fresno,CA,Fresno,California,36.783,-119.7939
32,California,Sacramento County,CA,"Sacramento, California, Sacramento County","Sacramento, California",Sacramento,Sacramento,CA,Sacramento,California,38.5677,-121.4685
33,California,Los Angeles County,CA,"Long Beach, California, Los Angeles County","Long Beach, California",Long Beach,Long Beach,CA,Los Angeles,California,33.7977,-118.167
34,Missouri,Jackson County,MO,"Kansas City, Missouri, Jackson County","Kansas City, Missouri",Kansas City,Kansas City,MO,Jackson,Missouri,39.1238,-94.5541
35,Arizona,Maricopa County,AZ,"Mesa, Arizona, Maricopa County","Mesa, Arizona",Mesa,Mesa,AZ,Maricopa,Arizona,33.4015,-111.7178
36,Georgia,Fulton County,GA,"Atlanta, Georgia, Fulton County","Atlanta, Georgia",Atlanta,Atlanta,GA,Fulton,Georgia,33.7628,-84.422
37,Colorado,El Paso County,CO,"Colorado Springs, Colorado, El Paso County","Colorado Springs, Colorado",Colorado Springs,Colorado Springs,CO,El Paso,Colorado,38.8674,-104.7605
38,Nebraska,Douglas County,NE,"Omaha, Nebraska, Douglas County","Omaha, Nebraska",Omaha,Omaha,NE,Douglas,Nebraska,41.2627,-96.0529
39,North Carolina,Wake County,NC,"Raleigh, North Carolina, Wake County","Raleigh, North Carolina",Raleigh,Raleigh,NC,Wake,North Carolina,35.8324,-78.6429
40,Florida,Miami-Dade County,FL,"Miami, Florida, Miami-Dade County","Miami, Florida",Miami,Miami,FL,Miami-Dade,Florida,25.784,-80.2101
41,California,Alameda County,CA,"Oakland, California, Alameda County","Oakland, California",Oakland,Oakland,CA,Alameda,California,37.7904,-122.2166
42,Minnesota,Hennepin County,MN,"Minneapolis, Minnesota, Hennepin County","Minneapolis, Minnesota",Minneapolis,Minneapolis,MN,Hennepin,Minnesota,44.9635,-93.2678
43,Oklahoma,Tulsa County,OK,"Tulsa, Oklahoma, Tulsa County","Tulsa, Oklahoma",Tulsa,Tulsa,OK,Tulsa,Oklahoma,36.1283,-95.9042
44,Ohio,Cuyahoga County,OH,"Cleveland, Ohio, Cuyahoga County","Cleveland, Ohio",Cleveland,Cleveland,OH,Cuyahoga,Ohio,41.4764,-81.6805
45,Kansas,Sedgwick County,KS,"Wichita, Kansas, Sedgwick County","Wichita, Kansas",Wichita,Wichita,KS,Sedgwick,Kansas,37.6895,-97.3443
46,Texas,Tarrant County,TX,"Arlington, Texas, Tarrant County","Arlington, Texas",Arlington,Arlington,TX,Tarrant,Texas,32.6998,-97.125
47,California,Kern County,CA,"Bakersfield, California, Kern County","Bakersfield, California",Bakersfield,Bakersfield,CA,Kern,California,35.3529,-119.0359
48,Florida,Hillsborough County,FL,"Tampa, Florida, Hillsborough County","Tampa, Florida",Tampa,Tampa,FL,Hillsborough,Florida,27.9945,-82.4447
49,Hawaii,Honolulu County,HI,"Honolulu, Hawaii, Honolulu County","Honolulu, Hawaii",Honolulu,Honolulu,HI,Honolulu,Hawaii,21.3294,-157.846
50,Colorado,Arapahoe County,CO,"Aurora, Colorado, Arapahoe County","Aurora, Colorado",Aurora,Aurora,CO,Arapahoe,Colorado,39.7083,-104.7237
51,California,Orange County,CA,"Anaheim, California, Orange County","Anaheim, California",Anaheim,Anaheim,CA,Orange,California,33.839,-117.8574
52,California,Orange County,CA,"Santa Ana, California, Orange County","Santa Ana, California",Santa Ana,Santa Ana,CA,Orange,California,33.7367,-117.8819
53,California,Riverside County,CA,"Riverside, California, Riverside County","Riverside, California",Riverside,Riverside,CA,Riverside,California,33.9381,-117.3949
54,Texas,Nueces County,TX,"Corpus Christi, Texas, Nueces County","Corpus Christi, Texas",Corpus Christi,Corpus Christi,TX,Nueces,Texas,27.7254,-97.3767
55,Pennsylvania,Allegheny County,PA,"Pittsburgh, Pennsylvania, Allegheny County","Pittsburgh, Pennsylvania",Pittsburgh,Pittsburgh,PA,Allegheny,Pennsylvania,40.4397,-79.9763
56,California,San Joaquin County,CA,"Stockton, California, San Joaquin County","Stockton, California",Stockton,Stockton,CA,San Joaquin,California,37.9765,-121.3109
57,Ohio,Hamilton County,OH,"Cincinnati, Ohio, Hamilton County","Cincinnati, Ohio",Cincinnati,Cincinnati,OH,Hamilton,Ohio,39.1413,-84.506
58,Ohio,Lucas County,OH,"Toledo, Ohio, Lucas County","Toledo, Ohio",Toledo,Toledo,OH,Lucas,Ohio,41.6638,-83.5827
59,North Carolina,Guilford County,NC,"Greensboro, North Carolina, Guilford County","Greensboro, North Carolina",Greensboro,Greensboro,NC,Guilford,North Carolina,36.0956,-79.8271
60,New Jersey,Essex County,NJ,"Newark, New Jersey, Essex County","Newark, New Jersey",Newark,Newark,NJ,Essex,New Jersey,40.7245,-74.1725
61,Texas,Collin County,TX,"Plano, Texas, Collin County","Plano, Texas",Plano,Plano,TX,Collin,Texas,33.0502,-96.7486
62,Nevada,Clark County,NV,"Henderson, Nevada, Clark County","Henderson, Nevada",Henderson,Henderson,NV,Clark,Nevada,36.0133,-115.0381
63,Nebraska,Lancaster County,NE,"Lincoln, Nebraska, Lancaster County","Lincoln, Nebraska",Lincoln,Lincoln,NE,Lancaster,Nebraska,40.8099,-96.6784
64,New York,Erie County,NY,"Buffalo, New York, Erie County","Buffalo, New York",Buffalo,Buffalo,NY,Erie,New York,42.9018,-78.8487
65,New Jersey,Hudson County,NJ,"Jersey City, New Jersey, Hudson County","Jersey City, New Jersey",Jersey City,Jersey City,NJ,Hudson,New Jersey,40.7184,-74.0686
66,California,San Diego County,CA,"Chula Vista, California, San Diego County","Chula Vista, California",Chula Vista,Chula Vista,CA,San Diego,California,32.6281,-117.0144
67,Indiana,Allen County,IN,"Fort Wayne, Indiana, Allen County","Fort Wayne, Indiana",Fort Wayne,Fort Wayne,IN,Allen,Indiana,41.0888,-85.1436
68,Florida,Orange County,FL,"Orlando, Florida, Orange County","Orlando, Florida",Orlando,Orlando,FL,Orange,Florida,28.4773,-81.337
69,Arizona,Maricopa County,AZ,"Chandler, Arizona, Maricopa County","Chandler, Arizona",Chandler,Chandler,AZ,Maricopa,Arizona,33.2825,-111.8514
70,Texas,Webb County,TX,"Laredo, Texas, Webb County","Laredo, Texas",Laredo,Laredo,TX,Webb,Texas,27.5625,-99.4874
71,North Carolina,Durham County,NC,"Durham, North Carolina, Durham County","Durham, North Carolina",Durham,Durham,NC,Durham,North Carolina,35.9792,-78.9022
72,Wisconsin,Dane County,WI,"Madison, Wisconsin, Dane County","Madison, Wisconsin",Madison,Madison,WI,Dane,Wisconsin,43.0822,-89.393
73,Texas,Lubbock County,TX,"Lubbock, Texas, Lubbock County","Lubbock, Texas",Lubbock,Lubbock,TX,Lubbock,Texas,33.5657,-101.8879
74,California,Orange County,CA,"Irvine, California, Orange County","Irvine, California",Irvine,Irvine,CA,Orange,California,33.6772,-117.7738
75,North Carolina,Forsyth County,NC,"Winston-Salem, North Carolina, Forsyth County","Winston-Salem, North Carolina",Winston-Salem,Winston-Salem,NC,Forsyth,North Carolina,36.1029,-80.261
76,Arizona,Maricopa County,AZ,"Glendale, Arizona, Maricopa County","Glendale, Arizona",Glendale,Glendale,AZ,Maricopa,Arizona,33.5791,-112.2311
77,Texas,Dallas County,TX,"Garland, Texas, Dallas County","Garland, Texas",Garland,Garland,TX,Dallas,Texas,32.91,-96.6304
78,Florida,Miami-Dade County,FL,"Hialeah, Florida, Miami-Dade County","Hialeah, Florida",Hialeah,Hialeah,FL,Miami-Dade,Florida,25.8696,-80.3045
79,Nevada,Washoe County,NV,"Reno, Nevada, Washoe County","Reno, Nevada",Reno,Reno,NV,Washoe,Nevada,39.5497,-119.8483
80,Arizona,Maricopa County,AZ,"Gilbert, Arizona, Maricopa County","Gilbert, Arizona",Gilbert,Gilbert,AZ,Maricopa,Arizona,33.31,-111.7463
81,Texas,Dallas County,TX,"Irving, Texas, Dallas County","Irving, Texas",Irving,Irving,TX,Dallas,Texas,32.8583,-96.9702
82,Arizona,Maricopa County,AZ,"Scottsdale, Arizona, Maricopa County","Scottsdale, Arizona",Scottsdale,Scottsdale,AZ,Maricopa,Arizona,33.6872,-111.8651
83,Nevada,Clark County,NV,"North Las Vegas, Nevada, Clark County","North Las Vegas, Nevada",North Las Vegas,North Las Vegas,NV,Clark,Nevada,36.2883,-115.0888
84,California,Alameda County,CA,"Fremont, California, Alameda County","Fremont, California",Fremont,Fremont,CA,Alameda,California,37.5265,-121.9843
85,California,San Bernardino County,CA,"San Bernardino, California, San Bernardino County","San Bernardino, California",San Bernardino,San Bernardino,CA,San Bernardino,California,34.1416,-117.2943
86,Alabama,Jefferson County,AL,"Birmingham, Alabama, Jefferson County","Birmingham, Alabama",Birmingham,Birmingham,AL,Jefferson,Alabama,33.5279,-86.7971
87,Washington,Spokane County,WA,"Spokane, Washington, Spokane County","Spokane, Washington",Spokane,Spokane,WA,Spokane,Washington,47.6671,-117.433
88,Iowa,Polk County,IA,"Des Moines, Iowa, Polk County","Des Moines, Iowa",Des Moines,Des Moines,IA,Polk,Iowa,41.5725,-93.6105
89,California,Stanislaus County,CA,"Modesto, California, Stanislaus County","Modesto, California",Modesto,Modesto,CA,Stanislaus,California,37.6375,-121.0028
90,North Carolina,Cumberland County,NC,"Fayetteville, North Carolina, Cumberland County","Fayetteville, North Carolina",Fayetteville,Fayetteville,NC,Cumberland,North Carolina,35.085,-78.9772
91,Washington,Pierce County,WA,"Tacoma, Washington, Pierce County","Tacoma, Washington",Tacoma,Tacoma,WA,Pierce,Washington,47.2431,-122.4531
92,California,Ventura County,CA,"Oxnard, California, Ventura County","Oxnard, California",Oxnard,Oxnard,CA,Ventura,California,34.1964,-119.1815
93,California,San Bernardino County,CA,"Fontana, California, San Bernardino County","Fontana, California",Fontana,Fontana,CA,San Bernardino,California,34.0968,-117.4599
94,Georgia,Muscogee County,GA,"Columbus, Georgia, Muscogee County","Columbus, Georgia",Columbus,Columbus,GA,Muscogee,Georgia,32.51,-84.8771
95,Alabama,Montgomery County,AL,"Montgomery, Alabama, Montgomery County","Montgomery, Alabama",Montgomery,Montgomery,AL,Montgomery,Alabama,32.3482,-86.2668
96,California,Riverside County,CA,"Moreno Valley, California, Riverside County","Moreno Valley, California",Moreno Valley,Moreno Valley,CA,Riverside,California,33.9244,-117.2045
97,Illinois,Kane County,IL,"Aurora, Illinois, Kane County","Aurora, Illinois",Aurora,Aurora,IL,Kane,Illinois,41.7638,-88.2902
98,New York,Westchester County,NY,"Yonkers, New York, Westchester County","Yonkers, New York",Yonkers,Yonkers,NY,Westchester,New York,40.9466,-73.8673
99,Ohio,Summit County,OH,"Akron, Ohio, Summit County","Akron, Ohio",Akron,Akron,OH,Summit,Ohio,41.0798,-81.5219
100,California,Orange County,CA,"Huntington Beach, California, Orange County","Huntington Beach, California",Huntington Beach,Huntington Beach,CA,Orange,California,33.696,-118.0018
101,Arkansas,Pulaski County,AR,"Little Rock, Arkansas, Pulaski County","Little Rock, Arkansas",Little Rock,Little Rock,AR,Pulaski,Arkansas,34.7256,-92.3577
102,California,Los Angeles County,CA,"Glendale, California, Los Angeles County","Glendale, California",Glendale,Glendale,CA,Los Angeles,California,34.1819,-118.2468
103,Alabama,Mobile County,AL,"Mobile, Alabama, Mobile County","Mobile, Alabama",Mobile,Mobile,AL,Mobile,Alabama,30.6782,-88.1162
104,Michigan,Kent County,MI,"Grand Rapids, Michigan, Kent County","Grand Rapids, Michigan",Grand Rapids,Grand Rapids,MI,Kent,Michigan,42.9619,-85.6562
105,Utah,Salt Lake County,UT,"Salt Lake City, Utah, Salt Lake County","Salt Lake City, Utah",Salt Lake City,Salt Lake City,UT,Salt Lake,Utah,40.7776,-111.9311
106,Florida,Leon County,FL,"Tallahassee, Florida, Leon County","Tallahassee, Florida",Tallahassee,Tallahassee,FL,Leon,Florida,30.4551,-84.2527
107,Alabama,Madison County,AL,"Huntsville, Alabama, Madison County","Huntsville, Alabama",Huntsville,Huntsville,AL,Madison,Alabama,34.6981,-86.6412
108,Texas,Dallas County,TX,"Grand Prairie, Texas, Dallas County","Grand Prairie, Texas",Grand Prairie,Grand Prairie,TX,Dallas,Texas,32.6871,-97.0208
109,Tennessee,Knox County,TN,"Knoxville, Tennessee, Knox County","Knoxville, Tennessee",Knoxville,Knoxville,TN,Knox,Tennessee,35.9692,-83.9496
110,Massachusetts,Worcester County,MA,"Worcester, Massachusetts, Worcester County","Worcester, Massachusetts",Worcester,Worcester,MA,Worcester,Massachusetts,42.2705,-71.8079
111,Texas,Cameron County,TX,"Brownsville, Texas, Cameron County","Brownsville, Texas",Brownsville,Brownsville,TX,Cameron,Texas,25.9975,-97.458
112,Kansas,Johnson County,KS,"Overland Park, Kansas, Johnson County","Overland Park, Kansas",Overland Park,Overland Park,KS,Johnson,Kansas,38.887,-94.687
113,California,Los Angeles County,CA,"Santa Clarita, California, Los Angeles County","Santa Clarita, California",Santa Clarita,Santa Clarita,CA,Los Angeles,California,34.4175,-118.4964
114,Rhode Island,Providence County,RI,"Providence, Rhode Island, Providence County","Providence, Rhode Island",Providence,Providence,RI,Providence,Rhode Island,41.823,-71.4187
115,California,Orange County,CA,"Garden Grove, California, Orange County","Garden Grove, California",Garden Grove,Garden Grove,CA,Orange,California,33.7787,-117.9601
116,Tennessee,Hamilton County,TN,"Chattanooga, Tennessee, Hamilton County","Chattanooga, Tennessee",Chattanooga,Chattanooga,TN,Hamilton,Tennessee,35.066,-85.2481
117,California,San Diego County,CA,"Oceanside, California, San Diego County","Oceanside, California",Oceanside,Oceanside,CA,San Diego,California,33.2247,-117.3083
118,Mississippi,Hinds County,MS,"Jackson, Mississippi, Hinds County","Jackson, Mississippi",Jackson,Jackson,MS,Hinds,Mississippi,32.3157,-90.2125
119,Florida,Broward County,FL,"Fort Lauderdale, Florida, Broward County","Fort Lauderdale, Florida",Fort Lauderdale,Fort Lauderdale,FL,Broward,Florida,26.1412,-80.1464
120,California,Sonoma County,CA,"Santa Rosa, California, Sonoma County","Santa Rosa, California",Santa Rosa,Santa Rosa,CA,Sonoma,California,38.4458,-122.7067
121,California,San Bernardino County,CA,"Rancho Cucamonga, California, San Bernardino County","Rancho Cucamonga, California",Rancho Cucamonga,Rancho Cucamonga,CA,San Bernardino,California,34.1247,-117.5667
122,Arizona,Maricopa County,AZ,"Tempe, Arizona, Maricopa County","Tempe, Arizona",Tempe,Tempe,AZ,Maricopa,Arizona,33.3881,-111.9319
123,California,San Bernardino County,CA,"Ontario, California, San Bernardino County","Ontario, California",Ontario,Ontario,CA,San Bernardino,California,34.0393,-117.6064
124,Washington,Clark County,WA,"Vancouver, Washington, Clark County","Vancouver, Washington",Vancouver,Vancouver,WA,Clark,Washington,45.6366,-122.5967
125,Florida,Lee County,FL,"Cape Coral, Florida, Lee County","Cape Coral, Florida",Cape Coral,Cape Coral,FL,Lee,Florida,26.6443,-81.9957
126,South Dakota,Minnehaha County,SD,"Sioux Falls, South Dakota, Minnehaha County","Sioux Falls, South Dakota",Sioux Falls,Sioux Falls,SD,Minnehaha,South Dakota,43.5396,-96.7311
127,Missouri,Greene County,MO,"Springfield, Missouri, Greene County","Springfield, Missouri",Springfield,Springfield,MO,Greene,Missouri,37.1943,-93.2916
128,Arizona,Maricopa County,AZ,"Peoria, Arizona, Maricopa County","Peoria, Arizona",Peoria,Peoria,AZ,Maricopa,Arizona,33.7843,-112.2989
129,Florida,Broward County,FL,"Pembroke Pines, Florida, Broward County","Pembroke Pines, Florida",Pembroke Pines,Pembroke Pines,FL,Broward,Florida,26.0128,-80.3382
130,California,Sacramento County,CA,"Elk Grove, California, Sacramento County","Elk Grove, California",Elk Grove,Elk Grove,CA,Sacramento,California,38.4161,-121.3842
131,Oregon,Marion County,OR,"Salem, Oregon, Marion County","Salem, Oregon",Salem,Salem,OR,Marion,Oregon,44.9233,-123.0244
132,California,Los Angeles County,CA,"Lancaster, California, Los Angeles County","Lancaster, California",Lancaster,Lancaster,CA,Los Angeles,California,34.6935,-118.1753
133,California,Riverside County,CA,"Corona, California, Riverside County","Corona, California",Corona,Corona,CA,Riverside,California,33.8616,-117.5649
134,Oregon,Lane County,OR,"Eugene, Oregon, Lane County","Eugene, Oregon",Eugene,Eugene,OR,Lane,Oregon,44.0564,-123.1174
135,California,Los Angeles County,CA,"Palmdale, California, Los Angeles County","Palmdale, California",Palmdale,Palmdale,CA,Los Angeles,California,34.5944,-118.1057
136,California,Monterey County,CA,"Salinas, California, Monterey County","Salinas, California",Salinas,Salinas,CA,Monterey,California,36.6883,-121.6317
137,Massachusetts,Hampden County,MA,"Springfield, Massachusetts, Hampden County","Springfield, Massachusetts",Springfield,Springfield,MA,Hampden,Massachusetts,42.1155,-72.5395
138,Texas,Harris County,TX,"Pasadena, Texas, Harris County","Pasadena, Texas",Pasadena,Pasadena,TX,Harris,Texas,29.6575,-95.1498
139,Colorado,Larimer County,CO,"Fort Collins, Colorado, Larimer County","Fort Collins, Colorado",Fort Collins,Fort Collins,CO,Larimer,Colorado,40.5477,-105.0656
140,California,Alameda County,CA,"Hayward, California, Alameda County","Hayward, California",Hayward,Hayward,CA,Alameda,California,37.6328,-122.0766
141,California,Los Angeles County,CA,"Pomona, California, Los Angeles County","Pomona, California",Pomona,Pomona,CA,Los Angeles,California,34.0585,-117.7626
142,North Carolina,Wake County,NC,"Cary, North Carolina, Wake County","Cary, North Carolina",Cary,Cary,NC,Wake,North Carolina,35.7819,-78.8195
143,Illinois,Winnebago County,IL,"Rockford, Illinois, Winnebago County","Rockford, Illinois",Rockford,Rockford,IL,Winnebago,Illinois,42.2596,-89.064
144,California,San Diego County,CA,"Escondido, California, San Diego County","Escondido, California",Escondido,Escondido,CA,San Diego,California,33.1348,-117.0723
145,Texas,Collin County,TX,"McKinney, Texas, Collin County","McKinney, Texas",McKinney,McKinney,TX,Collin,Texas,33.2016,-96.667
146,Kansas,Wyandotte County,KS,"Kansas City, Kansas, Wyandotte County","Kansas City, Kansas",Kansas City,Kansas City,KS,Wyandotte,Kansas,39.1235,-94.7443
147,Illinois,Will County,IL,"Joliet, Illinois, Will County","Joliet, Illinois",Joliet,Joliet,IL,Will,Illinois,41.5188,-88.1499
148,California,Santa Clara County,CA,"Sunnyvale, California, Santa Clara County","Sunnyvale, California",Sunnyvale,Sunnyvale,CA,Santa Clara,California,37.3836,-122.0255
149,California,Los Angeles County,CA,"Torrance, California, Los Angeles County","Torrance, California",Torrance,Torrance,CA,Los Angeles,California,33.8346,-118.3416
150,Connecticut,Fairfield County,CT,"Bridgeport, Connecticut, Fairfield County","Bridgeport, Connecticut",Bridgeport,Bridgeport,CT,Fairfield,Connecticut,41.1918,-73.1954
151,Colorado,Jefferson County,CO,"Lakewood, Colorado, Jefferson County","Lakewood, Colorado",Lakewood,Lakewood,CO,Jefferson,Colorado,39.6977,-105.1172
152,Florida,Broward County,FL,"Hollywood, Florida, Broward County","Hollywood, Florida",Hollywood,Hollywood,FL,Broward,Florida,26.0293,-80.1679
153,New Jersey,Passaic County,NJ,"Paterson, New Jersey, Passaic County","Paterson, New Jersey",Paterson,Paterson,NJ,Passaic,New Jersey,40.9147,-74.1624
154,Illinois,DuPage County,IL,"Naperville, Illinois, DuPage County","Naperville, Illinois",Naperville,Naperville,IL,DuPage,Illinois,41.748,-88.1659
155,New York,Onondaga County,NY,"Syracuse, New York, Onondaga County","Syracuse, New York",Syracuse,Syracuse,NY,Onondaga,New York,43.0407,-76.1437
156,Texas,Dallas County,TX,"Mesquite, Texas, Dallas County","Mesquite, Texas",Mesquite,Mesquite,TX,Dallas,Texas,32.7602,-96.5865
157,Ohio,Montgomery County,OH,"Dayton, Ohio, Montgomery County","Dayton, Ohio",Dayton,Dayton,OH,Montgomery,Ohio,39.7805,-84.2003
158,Georgia,Chatham County,GA,"Savannah, Georgia, Chatham County","Savannah, Georgia",Savannah,Savannah,GA,Chatham,Georgia,32.0286,-81.1821
159,Tennessee,Montgomery County,TN,"Clarksville, Tennessee, Montgomery County","Clarksville, Tennessee",Clarksville,Clarksville,TN,Montgomery,Tennessee,36.5692,-87.3413
160,California,Orange County,CA,"Orange, California, Orange County","Orange, California",Orange,Orange,CA,Orange,California,33.8038,-117.8218
161,California,Los Angeles County,CA,"Pasadena, California, Los Angeles County","Pasadena, California",Pasadena,Pasadena,CA,Los Angeles,California,34.1597,-118.139
162,California,Orange County,CA,"Fullerton, California, Orange County","Fullerton, California",Fullerton,Fullerton,CA,Orange,California,33.8841,-117.9279
163,Texas,Bell County,TX,"Killeen, Texas, Bell County","Killeen, Texas",Killeen,Killeen,TX,Bell,Texas,31.0753,-97.7297
164,Texas,Collin County,TX,"Frisco, Texas, Collin County","Frisco, Texas",Frisco,Frisco,TX,Collin,Texas,33.156,-96.8216
165,Texas,Hidalgo County,TX,"McAllen, Texas, Hidalgo County","McAllen, Texas",McAllen,McAllen,TX,Hidalgo,Texas,26.2252,-98.2467
166,Michigan,Macomb County,MI,"Warren, Michigan, Macomb County","Warren, Michigan",Warren,Warren,MI,Macomb,Michigan,42.4934,-83.027
167,Washington,King County,WA,"Bellevue, Washington, King County","Bellevue, Washington",Bellevue,Bellevue,WA,King,Washington,47.5951,-122.1535
168,Utah,Salt Lake County,UT,"West Valley City, Utah, Salt Lake County","West Valley City, Utah",West Valley City,West Valley City,UT,Salt Lake,Utah,40.6886,-112.0123
169,South Carolina,Richland County,SC,"Columbia, South Carolina, Richland County","Columbia, South Carolina",Columbia,Columbia,SC,Richland,South Carolina,34.0378,-80.9036
170,Kansas,Johnson County,KS,"Olathe, Kansas, Johnson County","Olathe, Kansas",Olathe,Olathe,KS,Johnson,Kansas,38.8833,-94.82
171,Michigan,Macomb County,MI,"Sterling Heights, Michigan, Macomb County","Sterling Heights, Michigan",Sterling Heights,Sterling Heights,MI,Macomb,Michigan,42.5809,-83.0305
172,Connecticut,New Haven County,CT,"New Haven, Connecticut, New Haven County","New Haven, Connecticut",New Haven,New Haven,CT,New Haven,Connecticut,41.3113,-72.9246
173,Florida,Broward County,FL,"Miramar, Florida, Broward County","Miramar, Florida",Miramar,Miramar,FL,Broward,Florida,25.9773,-80.3351
174,Texas,McLennan County,TX,"Waco, Texas, McLennan County","Waco, Texas",Waco,Waco,TX,McLennan,Texas,31.5599,-97.1882
175,California,Ventura County,CA,"Thousand Oaks, California, Ventura County","Thousand Oaks, California",Thousand Oaks,Thousand Oaks,CA,Ventura,California,34.1914,-118.8756
176,Iowa,Linn County,IA,"Cedar Rapids, Iowa, Linn County","Cedar Rapids, Iowa",Cedar Rapids,Cedar Rapids,IA,Linn,Iowa,41.9662,-91.6783
177,South Carolina,Charleston County,SC,"Charleston, South Carolina, Charleston County","Charleston, South Carolina",Charleston,Charleston,SC,Charleston,South Carolina,32.8168,-79.9687
178,California,Tulare County,CA,"Visalia, California, Tulare County","Visalia, California",Visalia,Visalia,CA,Tulare,California,36.3276,-119.3269
179,Kansas,Shawnee County,KS,"Topeka, Kansas, Shawnee County","Topeka, Kansas",Topeka,Topeka,KS,Shawnee,Kansas,39.0346,-95.6955
180,New Jersey,Union County,NJ,"Elizabeth, New Jersey, Union County","Elizabeth, New Jersey",Elizabeth,Elizabeth,NJ,Union,New Jersey,40.6658,-74.1913
181,Florida,Alachua County,FL,"Gainesville, Florida, Alachua County","Gainesville, Florida",Gainesville,Gainesville,FL,Alachua,Florida,29.6804,-82.3459
182,Colorado,Adams County,CO,"Thornton, Colorado, Adams County","Thornton, Colorado",Thornton,Thornton,CO,Adams,Colorado,39.9197,-104.9438
183,California,Placer County,CA,"Roseville, California, Placer County","Roseville, California",Roseville,Roseville,CA,Placer,California,38.7703,-121.3196
184,Texas,Dallas County,TX,"Carrollton, Texas, Dallas County","Carrollton, Texas",Carrollton,Carrollton,TX,Dallas,Texas,32.989,-96.8999
185,Florida,Broward County,FL,"Coral Springs, Florida, Broward County","Coral Springs, Florida",Coral Springs,Coral Springs,FL,Broward,Florida,26.2702,-80.2591
186,Connecticut,Fairfield County,CT,"Stamford, Connecticut, Fairfield County","Stamford, Connecticut",Stamford,Stamford,CT,Fairfield,Connecticut,41.1039,-73.5585
187,California,Ventura County,CA,"Simi Valley, California, Ventura County","Simi Valley, California",Simi Valley,Simi Valley,CA,Ventura,California,34.2663,-118.749
188,California,Contra Costa County,CA,"Concord, California, Contra Costa County","Concord, California",Concord,Concord,CA,Contra Costa,California,37.9722,-122.0016
189,Connecticut,Hartford County,CT,"Hartford, Connecticut, Hartford County","Hartford, Connecticut",Hartford,Hartford,CT,Hartford,Connecticut,41.7661,-72.6834
190,Washington,King County,WA,"Kent, Washington, King County","Kent, Washington",Kent,Kent,WA,King,Washington,47.3887,-122.2128
191,Texas,Midland County,TX,"Midland, Texas, Midland County","Midland, Texas",Midland,Midland,TX,Midland,Texas,32.0243,-102.1147
192,Arizona,Maricopa County,AZ,"Surprise, Arizona, Maricopa County","Surprise, Arizona",Surprise,Surprise,AZ,Maricopa,Arizona,33.6815,-112.4515
193,Texas,Denton County,TX,"Denton, Texas, Denton County","Denton, Texas",Denton,Denton,TX,Denton,Texas,33.2175,-97.1418
194,California,San Bernardino County,CA,"Victorville, California, San Bernardino County","Victorville, California",Victorville,Victorville,CA,San Bernardino,California,34.5277,-117.3536
195,Indiana,Vanderburgh County,IN,"Evansville, Indiana, Vanderburgh County","Evansville, Indiana",Evansville,Evansville,IN,Vanderburgh,Indiana,37.9881,-87.5341
196,California,Santa Clara County,CA,"Santa Clara, California, Santa Clara County","Santa Clara, California",Santa Clara,Santa Clara,CA,Santa Clara,California,37.3646,-121.968
197,Texas,Taylor County,TX,"Abilene, Texas, Taylor County","Abilene, Texas",Abilene,Abilene,TX,Taylor,Texas,32.4543,-99.7384
198,California,Solano County,CA,"Vallejo, California, Solano County","Vallejo, California",Vallejo,Vallejo,CA,Solano,California,38.1125,-122.2342
199,Pennsylvania,Lehigh County,PA,"Allentown, Pennsylvania, Lehigh County","Allentown, Pennsylvania",Allentown,Allentown,PA,Lehigh,Pennsylvania,40.5961,-75.4756
200,Oklahoma,Cleveland County,OK,"Norman, Oklahoma, Cleveland County","Norman, Oklahoma",Norman,Norman,OK,Cleveland,Oklahoma,35.2335,-97.3471
201,Texas,Jefferson County,TX,"Beaumont, Texas, Jefferson County","Beaumont, Texas",Beaumont,Beaumont,TX,Jefferson,Texas,30.0849,-94.1451
202,Missouri,Jackson County,MO,"Independence, Missouri, Jackson County","Independence, Missouri",Independence,Independence,MO,Jackson,Missouri,39.0871,-94.3501
203,Tennessee,Rutherford County,TN,"Murfreesboro, Tennessee, Rutherford County","Murfreesboro, Tennessee",Murfreesboro,Murfreesboro,TN,Rutherford,Tennessee,35.849,-86.4121
204,Michigan,Washtenaw County,MI,"Ann Arbor, Michigan, Washtenaw County","Ann Arbor, Michigan",Ann Arbor,Ann Arbor,MI,Washtenaw,Michigan,42.2759,-83.731
205,Illinois,Sangamon County,IL,"Springfield, Illinois, Sangamon County","Springfield, Illinois",Springfield,Springfield,IL,Sangamon,Illinois,39.7709,-89.654
206,California,Alameda County,CA,"Berkeley, California, Alameda County","Berkeley, California",Berkeley,Berkeley,CA,Alameda,California,37.8722,-122.276
207,Illinois,Peoria County,IL,"Peoria, Illinois, Peoria County","Peoria, Illinois",Peoria,Peoria,IL,Peoria,Illinois,40.752,-89.6154
208,Utah,Utah County,UT,"Provo, Utah, Utah County","Provo, Utah",Provo,Provo,UT,Utah,Utah,40.2457,-111.6457
209,California,Los Angeles County,CA,"El Monte, California, Los Angeles County","El Monte, California",El Monte,El Monte,CA,Los Angeles,California,34.0739,-118.0291
210,Missouri,Boone County,MO,"Columbia, Missouri, Boone County","Columbia, Missouri",Columbia,Columbia,MO,Boone,Missouri,38.9472,-92.3268
211,Michigan,Ingham County,MI,"Lansing, Michigan, Ingham County","Lansing, Michigan",Lansing,Lansing,MI,Ingham,Michigan,42.7142,-84.5601
212,North Dakota,Cass County,ND,"Fargo, North Dakota, Cass County","Fargo, North Dakota",Fargo,Fargo,ND,Cass,North Dakota,46.8651,-96.8292
213,California,Los Angeles County,CA,"Downey, California, Los Angeles County","Downey, California",Downey,Downey,CA,Los Angeles,California,33.9379,-118.1311
214,California,Orange County,CA,"Costa Mesa, California, Orange County","Costa Mesa, California",Costa Mesa,Costa Mesa,CA,Orange,California,33.6667,-117.9135
215,North Carolina,New Hanover County,NC,"Wilmington, North Carolina, New Hanover County","Wilmington, North Carolina",Wilmington,Wilmington,NC,New Hanover,North Carolina,34.2099,-77.8866
216,Colorado,Jefferson County,CO,"Arvada, Colorado, Jefferson County","Arvada, Colorado",Arvada,Arvada,CO,Jefferson,Colorado,39.832,-105.151
217,California,Los Angeles County,CA,"Inglewood, California, Los Angeles County","Inglewood, California",Inglewood,Inglewood,CA,Los Angeles,California,33.9566,-118.3444
218,Florida,Miami-Dade County,FL,"Miami Gardens, Florida, Miami-Dade County","Miami Gardens, Florida",Miami Gardens,Miami Gardens,FL,Miami-Dade,Florida,25.9433,-80.2426
219,California,San Diego County,CA,"Carlsbad, California, San Diego County","Carlsbad, California",Carlsbad,Carlsbad,CA,San Diego,California,33.1246,-117.2834
220,Minnesota,Olmsted County,MN,"Rochester, Minnesota, Olmsted County","Rochester, Minnesota",Rochester,Rochester,MN,Olmsted,Minnesota,44.0154,-92.478
221,Texas,Ector County,TX,"Odessa, Texas, Ector County","Odessa, Texas",Odessa,Odessa,TX,Ector,Texas,31.8801,-102.3448
222,New Hampshire,Hillsborough County,NH,"Manchester, New Hampshire, Hillsborough County","Manchester, New Hampshire",Manchester,Manchester,NH,Hillsborough,New Hampshire,42.9848,-71.4447
223,Illinois,Kane County,IL,"Elgin, Illinois, Kane County","Elgin, Illinois",Elgin,Elgin,IL,Kane,Illinois,42.0383,-88.324
224,Utah,Salt Lake County,UT,"West Jordan, Utah, Salt Lake County","West Jordan, Utah",West Jordan,West Jordan,UT,Salt Lake,Utah,40.6024,-112.0008
225,Texas,Williamson County,TX,"Round Rock, Texas, Williamson County","Round Rock, Texas",Round Rock,Round Rock,TX,Williamson,Texas,30.527,-97.6642
226,Florida,Pinellas County,FL,"Clearwater, Florida, Pinellas County","Clearwater, Florida",Clearwater,Clearwater,FL,Pinellas,Florida,27.979,-82.7623
227,Connecticut,New Haven County,CT,"Waterbury, Connecticut, New Haven County","Waterbury, Connecticut",Waterbury,Waterbury,CT,New Haven,Connecticut,41.5582,-73.0361
228,Oregon,Multnomah County,OR,"Gresham, Oregon, Multnomah County","Gresham, Oregon",Gresham,Gresham,OR,Multnomah,Oregon,45.5021,-122.4413
229,California,Solano County,CA,"Fairfield, California, Solano County","Fairfield, California",Fairfield,Fairfield,CA,Solano,California,38.2583,-122.0335
230,Montana,Yellowstone County,MT,"Billings, Montana, Yellowstone County","Billings, Montana",Billings,Billings,MT,Yellowstone,Montana,45.7891,-108.5526
231,Massachusetts,Middlesex County,MA,"Lowell, Massachusetts, Middlesex County","Lowell, Massachusetts",Lowell,Lowell,MA,Middlesex,Massachusetts,42.6389,-71.3217
232,Colorado,Pueblo County,CO,"Pueblo, Colorado, Pueblo County","Pueblo, Colorado",Pueblo,Pueblo,CO,Pueblo,Colorado,38.2701,-104.6114
233,North Carolina,Guilford County,NC,"High Point, North Carolina, Guilford County","High Point, North Carolina",High Point,High Point,NC,Guilford,North Carolina,35.991,-79.9937
234,California,Los Angeles County,CA,"West Covina, California, Los Angeles County","West Covina, California",West Covina,West Covina,CA,Los Angeles,California,34.0555,-117.9113
235,California,Contra Costa County,CA,"Richmond, California, Contra Costa County","Richmond, California",Richmond,Richmond,CA,Contra Costa,California,37.9477,-122.3389
236,California,Riverside County,CA,"Murrieta, California, Riverside County","Murrieta, California",Murrieta,Murrieta,CA,Riverside,California,33.5719,-117.1909
237,Massachusetts,Middlesex County,MA,"Cambridge, Massachusetts, Middlesex County","Cambridge, Massachusetts",Cambridge,Cambridge,MA,Middlesex,Massachusetts,42.3759,-71.1185
238,California,Contra Costa County,CA,"Antioch, California, Contra Costa County","Antioch, California",Antioch,Antioch,CA,Contra Costa,California,37.9787,-121.796
239,California,Riverside County,CA,"Temecula, California, Riverside County","Temecula, California",Temecula,Temecula,CA,Riverside,California,33.4928,-117.1315
240,California,Los Angeles County,CA,"Norwalk, California, Los Angeles County","Norwalk, California",Norwalk,Norwalk,CA,Los Angeles,California,33.9069,-118.0829
241,Colorado,Arapahoe County,CO,"Centennial, Colorado, Arapahoe County","Centennial, Colorado",Centennial,Centennial,CO,Arapahoe,Colorado,39.5926,-104.8673
242,Washington,Snohomish County,WA,"Everett, Washington, Snohomish County","Everett, Washington",Everett,Everett,WA,Snohomish,Washington,47.9525,-122.1669
243,Florida,Brevard County,FL,"Palm Bay, Florida, Brevard County","Palm Bay, Florida",Palm Bay,Palm Bay,FL,Brevard,Florida,27.9631,-80.6593
244,Wisconsin,Brown County,WI,"Green Bay, Wisconsin, Brown County","Green Bay, Wisconsin",Green Bay,Green Bay,WI,Brown,Wisconsin,44.5148,-87.9895
245,California,San Mateo County,CA,"Daly City, California, San Mateo County","Daly City, California",Daly City,Daly City,CA,San Mateo,California,37.6862,-122.4685
246,California,Los Angeles County,CA,"Burbank, California, Los Angeles County","Burbank, California",Burbank,Burbank,CA,Los Angeles,California,34.1879,-118.3235
247,Texas,Dallas County,TX,"Richardson, Texas, Dallas County","Richardson, Texas",Richardson,Richardson,TX,Dallas,Texas,32.9716,-96.7093
248,Florida,Broward County,FL,"Pompano Beach, Florida, Broward County","Pompano Beach, Florida",Pompano Beach,Pompano Beach,FL,Broward,Florida,26.2428,-80.1312
249,South Carolina,Charleston County,SC,"North Charleston, South Carolina, Charleston County","North Charleston, South Carolina",North Charleston,North Charleston,SC,Charleston,South Carolina,32.9067,-80.0722
250,Colorado,Boulder County,CO,"Boulder, Colorado, Boulder County","Boulder, Colorado",Boulder,Boulder,CO,Boulder,Colorado,40.0248,-105.2524
251,Florida,Palm Beach County,FL,"West Palm Beach, Florida, Palm Beach County","West Palm Beach, Florida",West Palm Beach,West Palm Beach,FL,Palm Beach,Florida,26.7469,-80.132
252,California,Santa Barbara County,CA,"Santa Maria, California, Santa Barbara County","Santa Maria, California",Santa Maria,Santa Maria,CA,Santa Barbara,California,34.9333,-120.4431
253,California,San Diego County,CA,"El Cajon, California, San Diego County","El Cajon, California",El Cajon,El Cajon,CA,San Diego,California,32.8017,-116.9604
254,Iowa,Scott County,IA,"Davenport, Iowa, Scott County","Davenport, Iowa",Davenport,Davenport,IA,Scott,Iowa,41.5565,-90.6053
255,California,San Bernardino County,CA,"Rialto, California, San Bernardino County","Rialto, California",Rialto,Rialto,CA,San Bernardino,California,34.1175,-117.3892
256,California,San Mateo County,CA,"San Mateo, California, San Mateo County","San Mateo, California",San Mateo,San Mateo,CA,San Mateo,California,37.5522,-122.3121
257,Texas,Denton County,TX,"Lewisville, Texas, Denton County","Lewisville, Texas",Lewisville,Lewisville,TX,Denton,Texas,33.0454,-96.9815
258,Florida,Polk County,FL,"Lakeland, Florida, Polk County","Lakeland, Florida",Lakeland,Lakeland,FL,Polk,Florida,28.0557,-81.9545
259,Pennsylvania,Erie County,PA,"Erie, Pennsylvania, Erie County","Erie, Pennsylvania",Erie,Erie,PA,Erie,Pennsylvania,42.1167,-80.0733
260,Texas,Smith County,TX,"Tyler, Texas, Smith County","Tyler, Texas",Tyler,Tyler,TX,Smith,Texas,32.3184,-95.3062
261,Texas,Brazoria County,TX,"Pearland, Texas, Brazoria County","Pearland, Texas",Pearland,Pearland,TX,Brazoria,Texas,29.5581,-95.3218
262,Texas,Brazos County,TX,"College Station, Texas, Brazos County","College Station, Texas",College Station,College Station,TX,Brazos,Texas,30.5852,-96.2959
263,Wisconsin,Kenosha County,WI,"Kenosha, Wisconsin, Kenosha County","Kenosha, Wisconsin",Kenosha,Kenosha,WI,Kenosha,Wisconsin,42.5865,-87.8773
264,Georgia,Fulton County,GA,"Sandy Springs, Georgia, Fulton County","Sandy Springs, Georgia",Sandy Springs,Sandy Springs,GA,Fulton,Georgia,33.9366,-84.3703
265,California,Fresno County,CA,"Clovis, California, Fresno County","Clovis, California",Clovis,Clovis,CA,Fresno,California,36.8278,-119.683
266,Michigan,Genesee County,MI,"Flint, Michigan, Genesee County","Flint, Michigan",Flint,Flint,MI,Genesee,Michigan,43.0236,-83.6921
267,Virginia,Roanoke County,VA,"Roanoke, Virginia, Roanoke County","Roanoke, Virginia",Roanoke,Roanoke,VA,Roanoke,Virginia,37.2785,-79.9581
268,New York,Albany County,NY,"Albany, New York, Albany County","Albany, New York",Albany,Albany,NY,Albany,New York,42.6664,-73.7987
269,California,Riverside County,CA,"Jurupa Valley, California, Riverside County","Jurupa Valley, California",Jurupa Valley,Jurupa Valley,CA,Riverside,California,34.001,-117.4706
270,California,Los Angeles County,CA,"Compton, California, Los Angeles County","Compton, California",Compton,Compton,CA,Los Angeles,California,33.893,-118.2274
271,Texas,Tom Green County,TX,"San Angelo, Texas, Tom Green County","San Angelo, Texas",San Angelo,San Angelo,TX,Tom Green,Texas,31.4424,-100.4504
272,Oregon,Washington County,OR,"Hillsboro, Oregon, Washington County","Hillsboro, Oregon",Hillsboro,Hillsboro,OR,Washington,Oregon,45.5273,-122.936
273,Oklahoma,Comanche County,OK,"Lawton, Oklahoma, Comanche County","Lawton, Oklahoma",Lawton,Lawton,OK,Comanche,Oklahoma,34.6175,-98.4202
274,Washington,King County,WA,"Renton, Washington, King County","Renton, Washington",Renton,Renton,WA,King,Washington,47.4784,-122.1918
275,California,San Diego County,CA,"Vista, California, San Diego County","Vista, California",Vista,Vista,CA,San Diego,California,33.1896,-117.2386
276,Florida,Broward County,FL,"Davie, Florida, Broward County","Davie, Florida",Davie,Davie,FL,Broward,Florida,26.0789,-80.287
277,Colorado,Weld County,CO,"Greeley, Colorado, Weld County","Greeley, Colorado",Greeley,Greeley,CO,Weld,Colorado,40.4152,-104.7706
278,California,Orange County,CA,"Mission Viejo, California, Orange County","Mission Viejo, California",Mission Viejo,Mission Viejo,CA,Orange,California,33.6096,-117.6551
279,Michigan,Wayne County,MI,"Dearborn, Michigan, Wayne County","Dearborn, Michigan",Dearborn,Dearborn,MI,Wayne,Michigan,42.3127,-83.213
280,California,Los Angeles County,CA,"South Gate, California, Los Angeles County","South Gate, California",South Gate,South Gate,CA,Los Angeles,California,33.9447,-118.1926
281,Alabama,Tuscaloosa County,AL,"Tuscaloosa, Alabama, Tuscaloosa County","Tuscaloosa, Alabama",Tuscaloosa,Tuscaloosa,AL,Tuscaloosa,Alabama,33.2348,-87.5268
282,Michigan,Wayne County,MI,"Livonia, Michigan, Wayne County","Livonia, Michigan",Livonia,Livonia,MI,Wayne,Michigan,42.3972,-83.3733
283,Massachusetts,Bristol County,MA,"New Bedford, Massachusetts, Bristol County","New Bedford, Massachusetts",New Bedford,New Bedford,MA,Bristol,Massachusetts,41.6697,-70.9428
284,California,Solano County,CA,"Vacaville, California, Solano County","Vacaville, California",Vacaville,Vacaville,CA,Solano,California,38.3587,-121.9673
285,Massachusetts,Plymouth County,MA,"Brockton, Massachusetts, Plymouth County","Brockton, Massachusetts",Brockton,Brockton,MA,Plymouth,Massachusetts,42.0821,-71.0242
286,Georgia,Fulton County,GA,"Roswell, Georgia, Fulton County","Roswell, Georgia",Roswell,Roswell,GA,Fulton,Georgia,34.0391,-84.3513
287,Oregon,Washington County,OR,"Beaverton, Oregon, Washington County","Beaverton, Oregon",Beaverton,Beaverton,OR,Washington,Oregon,45.4779,-122.8168
288,Massachusetts,Norfolk County,MA,"Quincy, Massachusetts, Norfolk County","Quincy, Massachusetts",Quincy,Quincy,MA,Norfolk,Massachusetts,42.2506,-71.0187
289,Nevada,Washoe County,NV,"Sparks, Nevada, Washoe County","Sparks, Nevada",Sparks,Sparks,NV,Washoe,Nevada,39.5736,-119.7161
290,Washington,Yakima County,WA,"Yakima, Washington, Yakima County","Yakima, Washington",Yakima,Yakima,WA,Yakima,Washington,46.5923,-120.5496
291,Washington,King County,WA,"Federal Way, Washington, King County","Federal Way, Washington",Federal Way,Federal Way,WA,King,Washington,47.3091,-122.3358
292,California,Los Angeles County,CA,"Carson, California, Los Angeles County","Carson, California",Carson,Carson,CA,Los Angeles,California,33.8374,-118.2559
293,California,Los Angeles County,CA,"Santa Monica, California, Los Angeles County","Santa Monica, California",Santa Monica,Santa Monica,CA,Los Angeles,California,34.0235,-118.481
294,California,San Bernardino County,CA,"Hesperia, California, San Bernardino County","Hesperia, California",Hesperia,Hesperia,CA,San Bernardino,California,34.3975,-117.3147
295,Texas,Collin County,TX,"Allen, Texas, Collin County","Allen, Texas",Allen,Allen,TX,Collin,Texas,33.1088,-96.6735
296,New Mexico,Sandoval County,NM,"Rio Rancho, New Mexico, Sandoval County","Rio Rancho, New Mexico",Rio Rancho,Rio Rancho,NM,Sandoval,New Mexico,35.2873,-106.6982
297,Arizona,Yuma County,AZ,"Yuma, Arizona, Yuma County","Yuma, Arizona",Yuma,Yuma,AZ,Yuma,Arizona,32.5995,-114.5491
298,California,Orange County,CA,"Westminster, California, Orange County","Westminster, California",Westminster,Westminster,CA,Orange,California,33.7523,-117.9938
299,Utah,Utah County,UT,"Orem, Utah, Utah County","Orem, Utah",Orem,Orem,UT,Utah,Utah,40.2981,-111.6994
300,Massachusetts,Essex County,MA,"Lynn, Massachusetts, Essex County","Lynn, Massachusetts",Lynn,Lynn,MA,Essex,Massachusetts,42.4781,-70.9664
301,California,Shasta County,CA,"Redding, California, Shasta County","Redding, California",Redding,Redding,CA,Shasta,California,40.5698,-122.365
302,Washington,Spokane County,WA,"Spokane Valley, Washington, Spokane County","Spokane Valley, Washington",Spokane Valley,Spokane Valley,WA,Spokane,Washington,47.6626,-117.2346
303,Florida,Miami-Dade County,FL,"Miami Beach, Florida, Miami-Dade County","Miami Beach, Florida",Miami Beach,Miami Beach,FL,Miami-Dade,Florida,25.8171,-80.1396
304,Texas,Galveston County,TX,"League City, Texas, Galveston County","League City, Texas",League City,League City,TX,Galveston,Texas,29.4874,-95.1087
305,Kansas,Douglas County,KS,"Lawrence, Kansas, Douglas County","Lawrence, Kansas",Lawrence,Lawrence,KS,Douglas,Kansas,38.9597,-95.2642
306,California,Santa Barbara County,CA,"Santa Barbara, California, Santa Barbara County","Santa Barbara, California",Santa Barbara,Santa Barbara,CA,Santa Barbara,California,34.4285,-119.7202
307,Florida,Broward County,FL,"Plantation, Florida, Broward County","Plantation, Florida",Plantation,Plantation,FL,Broward,Florida,26.1259,-80.2617
308,Utah,Salt Lake County,UT,"Sandy, Utah, Salt Lake County","Sandy, Utah",Sandy,Sandy,UT,Salt Lake,Utah,40.5709,-111.8506
309,Florida,Broward County,FL,"Sunrise, Florida, Broward County","Sunrise, Florida",Sunrise,Sunrise,FL,Broward,Florida,26.1547,-80.2997
310,Georgia,Bibb County,GA,"Macon, Georgia, Bibb County","Macon, Georgia",Macon,Macon,GA,Bibb,Georgia,32.8065,-83.6974
311,Colorado,Boulder County,CO,"Longmont, Colorado, Boulder County","Longmont, Colorado",Longmont,Longmont,CO,Boulder,Colorado,40.1686,-105.1005
312,Florida,Palm Beach County,FL,"Boca Raton, Florida, Palm Beach County","Boca Raton, Florida",Boca Raton,Boca Raton,FL,Palm Beach,Florida,26.3752,-80.108
313,California,San Diego County,CA,"San Marcos, California, San Diego County","San Marcos, California",San Marcos,San Marcos,CA,San Diego,California,33.135,-117.1743
314,North Carolina,Pitt County,NC,"Greenville, North Carolina, Pitt County","Greenville, North Carolina",Greenville,Greenville,NC,Pitt,North Carolina,35.5943,-77.376
315,Illinois,Lake County,IL,"Waukegan, Illinois, Lake County","Waukegan, Illinois",Waukegan,Waukegan,IL,Lake,Illinois,42.3698,-87.8716
316,Massachusetts,Bristol County,MA,"Fall River, Massachusetts, Bristol County","Fall River, Massachusetts",Fall River,Fall River,MA,Bristol,Massachusetts,41.7136,-71.1015
317,California,Butte County,CA,"Chico, California, Butte County","Chico, California",Chico,Chico,CA,Butte,California,39.7578,-121.8161
318,Massachusetts,Middlesex County,MA,"Newton, Massachusetts, Middlesex County","Newton, Massachusetts",Newton,Newton,MA,Middlesex,Massachusetts,42.3316,-71.2085
319,California,Alameda County,CA,"San Leandro, California, Alameda County","San Leandro, California",San Leandro,San Leandro,CA,Alameda,California,37.7074,-122.1599
320,Pennsylvania,Berks County,PA,"Reading, Pennsylvania, Berks County","Reading, Pennsylvania",Reading,Reading,PA,Berks,Pennsylvania,40.34,-75.9267
321,Connecticut,Fairfield County,CT,"Norwalk, Connecticut, Fairfield County","Norwalk, Connecticut",Norwalk,Norwalk,CT,Fairfield,Connecticut,41.1144,-73.4215
322,Arkansas,Sebastian County,AR,"Fort Smith, Arkansas, Sebastian County","Fort Smith, Arkansas",Fort Smith,Fort Smith,AR,Sebastian,Arkansas,35.3495,-94.3695
323,California,Orange County,CA,"Newport Beach, California, Orange County","Newport Beach, California",Newport Beach,Newport Beach,CA,Orange,California,33.6151,-117.8668
324,North Carolina,Buncombe County,NC,"Asheville, North Carolina, Buncombe County","Asheville, North Carolina",Asheville,Asheville,NC,Buncombe,North Carolina,35.5707,-82.5537
325,New Hampshire,Hillsborough County,NH,"Nashua, New Hampshire, Hillsborough County","Nashua, New Hampshire",Nashua,Nashua,NH,Hillsborough,New Hampshire,42.7491,-71.491
326,Oklahoma,Oklahoma County,OK,"Edmond, Oklahoma, Oklahoma County","Edmond, Oklahoma",Edmond,Edmond,OK,Oklahoma,Oklahoma,35.6689,-97.416
327,California,Los Angeles County,CA,"Whittier, California, Los Angeles County","Whittier, California",Whittier,Whittier,CA,Los Angeles,California,33.9678,-118.0188
328,Idaho,Canyon County,ID,"Nampa, Idaho, Canyon County","Nampa, Idaho",Nampa,Nampa,ID,Canyon,Idaho,43.5844,-116.5638
329,Minnesota,Hennepin County,MN,"Bloomington, Minnesota, Hennepin County","Bloomington, Minnesota",Bloomington,Bloomington,MN,Hennepin,Minnesota,44.8306,-93.3151
330,Florida,Volusia County,FL,"Deltona, Florida, Volusia County","Deltona, Florida",Deltona,Deltona,FL,Volusia,Florida,28.905,-81.2137
331,California,Los Angeles County,CA,"Hawthorne, California, Los Angeles County","Hawthorne, California",Hawthorne,Hawthorne,CA,Los Angeles,California,33.9147,-118.3476
332,Indiana,Hamilton County,IN,"Carmel, Indiana, Hamilton County","Carmel, Indiana",Carmel,Carmel,IN,Hamilton,Indiana,39.965,-86.146
333,New Jersey,Passaic County,NJ,"Clifton, New Jersey, Passaic County","Clifton, New Jersey",Clifton,Clifton,NJ,Passaic,New Jersey,40.863,-74.1575
334,California,Sacramento County,CA,"Citrus Heights, California, Sacramento County","Citrus Heights, California",Citrus Heights,Citrus Heights,CA,Sacramento,California,38.6948,-121.288
335,California,Alameda County,CA,"Livermore, California, Alameda County","Livermore, California",Livermore,Livermore,CA,Alameda,California,37.6868,-121.7607
336,California,San Joaquin County,CA,"Tracy, California, San Joaquin County","Tracy, California",Tracy,Tracy,CA,San Joaquin,California,37.7269,-121.4523
337,California,Los Angeles County,CA,"Alhambra, California, Los Angeles County","Alhambra, California",Alhambra,Alhambra,CA,Los Angeles,California,34.084,-118.1355
338,Washington,King County,WA,"Kirkland, Washington, King County","Kirkland, Washington",Kirkland,Kirkland,WA,King,Washington,47.697,-122.2057
339,New Jersey,Mercer County,NJ,"Trenton, New Jersey, Mercer County","Trenton, New Jersey",Trenton,Trenton,NJ,Mercer,New Jersey,40.2237,-74.7641
340,Utah,Weber County,UT,"Ogden, Utah, Weber County","Ogden, Utah",Ogden,Ogden,UT,Weber,Utah,41.2279,-111.9682
341,Alabama,Jefferson County,AL,"Hoover, Alabama, Jefferson County","Hoover, Alabama",Hoover,Hoover,AL,Jefferson,Alabama,33.3763,-86.8068
342,Illinois,Cook County,IL,"Cicero, Illinois, Cook County","Cicero, Illinois",Cicero,Cicero,IL,Cook,Illinois,41.8445,-87.7593
343,Indiana,Hamilton County,IN,"Fishers, Indiana, Hamilton County","Fishers, Indiana",Fishers,Fishers,IN,Hamilton,Indiana,39.9588,-85.9659
344,Texas,Fort Bend County,TX,"Sugar Land, Texas, Fort Bend County","Sugar Land, Texas",Sugar Land,Sugar Land,TX,Fort Bend,Texas,29.5935,-95.6358
345,Connecticut,Fairfield County,CT,"Danbury, Connecticut, Fairfield County","Danbury, Connecticut",Danbury,Danbury,CT,Fairfield,Connecticut,41.4015,-73.4709
346,Idaho,Ada County,ID,"Meridian, Idaho, Ada County","Meridian, Idaho",Meridian,Meridian,ID,Ada,Idaho,43.6116,-116.3977
347,California,Riverside County,CA,"Indio, California, Riverside County","Indio, California",Indio,Indio,CA,Riverside,California,33.7346,-116.2346
348,North Carolina,Cabarrus County,NC,"Concord, North Carolina, Cabarrus County","Concord, North Carolina",Concord,Concord,NC,Cabarrus,North Carolina,35.3933,-80.6369
349,California,Riverside County,CA,"Menifee, California, Riverside County","Menifee, California",Menifee,Menifee,CA,Riverside,California,33.6909,-117.1849
350,Illinois,Champaign County,IL,"Champaign, Illinois, Champaign County","Champaign, Illinois",Champaign,Champaign,IL,Champaign,Illinois,40.1142,-88.2737
351,California,Orange County,CA,"Buena Park, California, Orange County","Buena Park, California",Buena Park,Buena Park,CA,Orange,California,33.8572,-118.0046
352,Michigan,Oakland County,MI,"Troy, Michigan, Oakland County","Troy, Michigan",Troy,Troy,MI,Oakland,Michigan,42.5817,-83.1457
353,Georgia,Fulton County,GA,"Johns Creek, Georgia, Fulton County","Johns Creek, Georgia",Johns Creek,Johns Creek,GA,Fulton,Georgia,34.0333,-84.2027
354,Washington,Whatcom County,WA,"Bellingham, Washington, Whatcom County","Bellingham, Washington",Bellingham,Bellingham,WA,Whatcom,Washington,48.7548,-122.469
355,Michigan,Wayne County,MI,"Westland, Michigan, Wayne County","Westland, Michigan",Westland,Westland,MI,Wayne,Michigan,42.3192,-83.3805
356,Indiana,Monroe County,IN,"Bloomington, Indiana, Monroe County","Bloomington, Indiana",Bloomington,Bloomington,IN,Monroe,Indiana,39.1637,-86.5257
357,Iowa,Woodbury County,IA,"Sioux City, Iowa, Woodbury County","Sioux City, Iowa",Sioux City,Sioux City,IA,Woodbury,Iowa,42.4959,-96.3901
358,Rhode Island,Kent County,RI,"Warwick, Rhode Island, Kent County","Warwick, Rhode Island",Warwick,Warwick,RI,Kent,Rhode Island,41.7062,-71.4334
359,California,Riverside County,CA,"Hemet, California, Riverside County","Hemet, California",Hemet,Hemet,CA,Riverside,California,33.7341,-116.9969
360,Texas,Gregg County,TX,"Longview, Texas, Gregg County","Longview, Texas",Longview,Longview,TX,Gregg,Texas,32.5193,-94.7622
361,Michigan,Oakland County,MI,"Farmington Hills, Michigan, Oakland County","Farmington Hills, Michigan",Farmington Hills,Farmington Hills,MI,Oakland,Michigan,42.486,-83.3771
362,Oregon,Deschutes County,OR,"Bend, Oregon, Deschutes County","Bend, Oregon",Bend,Bend,OR,Deschutes,Oregon,44.0563,-121.3095
363,California,Los Angeles County,CA,"Lakewood, California, Los Angeles County","Lakewood, California",Lakewood,Lakewood,CA,Los Angeles,California,33.8471,-118.1222
364,California,Merced County,CA,"Merced, California, Merced County","Merced, California",Merced,Merced,CA,Merced,California,37.3057,-120.4779
365,Texas,Hidalgo County,TX,"Mission, Texas, Hidalgo County","Mission, Texas",Mission,Mission,TX,Hidalgo,Texas,26.2039,-98.3256
366,California,San Bernardino County,CA,"Chino, California, San Bernardino County","Chino, California",Chino,Chino,CA,San Bernardino,California,33.9836,-117.6654
367,California,San Mateo County,CA,"Redwood City, California, San Mateo County","Redwood City, California",Redwood City,Redwood City,CA,San Mateo,California,37.5025,-122.2253
368,Texas,Hidalgo County,TX,"Edinburg, Texas, Hidalgo County","Edinburg, Texas",Edinburg,Edinburg,TX,Hidalgo,Texas,26.3196,-98.1597
369,Rhode Island,Providence County,RI,"Cranston, Rhode Island, Providence County","Cranston, Rhode Island",Cranston,Cranston,RI,Providence,Rhode Island,41.7658,-71.4858
370,Ohio,Cuyahoga County,OH,"Parma, Ohio, Cuyahoga County","Parma, Ohio",Parma,Parma,OH,Cuyahoga,Ohio,41.3843,-81.7286
371,New York,Westchester County,NY,"New Rochelle, New York, Westchester County","New Rochelle, New York",New Rochelle,New Rochelle,NY,Westchester,New York,40.9304,-73.7836
372,California,Orange County,CA,"Lake Forest, California, Orange County","Lake Forest, California",Lake Forest,Lake Forest,CA,Orange,California,33.6605,-117.6714
373,California,Napa County,CA,"Napa, California, Napa County","Napa, California",Napa,Napa,CA,Napa,California,38.2975,-122.301
374,Indiana,Lake County,IN,"Hammond, Indiana, Lake County","Hammond, Indiana",Hammond,Hammond,IN,Lake,Indiana,41.6168,-87.4909
375,Arkansas,Washington County,AR,"Fayetteville, Arkansas, Washington County","Fayetteville, Arkansas",Fayetteville,Fayetteville,AR,Washington,Arkansas,36.0714,-94.1661
376,Illinois,McLean County,IL,"Bloomington, Illinois, McLean County","Bloomington, Illinois",Bloomington,Bloomington,IL,McLean,Illinois,40.4757,-88.9703
377,Arizona,Maricopa County,AZ,"Avondale, Arizona, Maricopa County","Avondale, Arizona",Avondale,Avondale,AZ,Maricopa,Arizona,33.3873,-112.3235
378,Massachusetts,Middlesex County,MA,"Somerville, Massachusetts, Middlesex County","Somerville, Massachusetts",Somerville,Somerville,MA,Middlesex,Massachusetts,42.3908,-71.1014
379,Florida,Flagler County,FL,"Palm Coast, Florida, Flagler County","Palm Coast, Florida",Palm Coast,Palm Coast,FL,Flagler,Florida,29.5389,-81.2457
380,Texas,Brazos County,TX,"Bryan, Texas, Brazos County","Bryan, Texas",Bryan,Bryan,TX,Brazos,Texas,30.665,-96.3807
381,Indiana,Lake County,IN,"Gary, Indiana, Lake County","Gary, Indiana",Gary,Gary,IN,Lake,Indiana,41.5905,-87.3473
382,Florida,Pinellas County,FL,"Largo, Florida, Pinellas County","Largo, Florida",Largo,Largo,FL,Pinellas,Florida,27.9088,-82.7712
383,Minnesota,Hennepin County,MN,"Brooklyn Park, Minnesota, Hennepin County","Brooklyn Park, Minnesota",Brooklyn Park,Brooklyn Park,MN,Hennepin,Minnesota,45.1112,-93.3505
384,California,Orange County,CA,"Tustin, California, Orange County","Tustin, California",Tustin,Tustin,CA,Orange,California,33.7311,-117.8107
385,Wisconsin,Racine County,WI,"Racine, Wisconsin, Racine County","Racine, Wisconsin",Racine,Racine,WI,Racine,Wisconsin,42.7274,-87.8135
386,Florida,Broward County,FL,"Deerfield Beach, Florida, Broward County","Deerfield Beach, Florida",Deerfield Beach,Deerfield Beach,FL,Broward,Florida,26.305,-80.1277
387,California,Santa Clara County,CA,"Mountain View, California, Santa Clara County","Mountain View, California",Mountain View,Mountain View,CA,Santa Clara,California,37.4001,-122.0796
388,Oregon,Jackson County,OR,"Medford, Oregon, Jackson County","Medford, Oregon",Medford,Medford,OR,Jackson,Oregon,42.3372,-122.854
389,Massachusetts,Essex County,MA,"Lawrence, Massachusetts, Essex County","Lawrence, Massachusetts",Lawrence,Lawrence,MA,Essex,Massachusetts,42.7002,-71.1626
390,California,Los Angeles County,CA,"Bellflower, California, Los Angeles County","Bellflower, California",Bellflower,Bellflower,CA,Los Angeles,California,33.888,-118.1271
391,Florida,Brevard County,FL,"Melbourne, Florida, Brevard County","Melbourne, Florida",Melbourne,Melbourne,FL,Brevard,Florida,28.1086,-80.6627
392,New Jersey,Camden County,NJ,"Camden, New Jersey, Camden County","Camden, New Jersey",Camden,Camden,NJ,Camden,New Jersey,39.9361,-75.1073
393,Washington,Benton County,WA,"Kennewick, Washington, Benton County","Kennewick, Washington",Kennewick,Kennewick,WA,Benton,Washington,46.1978,-119.1732
394,California,Los Angeles County,CA,"Baldwin Park, California, Los Angeles County","Baldwin Park, California",Baldwin Park,Baldwin Park,CA,Los Angeles,California,34.0829,-117.9722
395,California,San Bernardino County,CA,"Chino Hills, California, San Bernardino County","Chino Hills, California",Chino Hills,Chino Hills,CA,San Bernardino,California,33.9508,-117.7254
396,California,Alameda County,CA,"Alameda, California, Alameda County","Alameda, California",Alameda,Alameda,CA,Alameda,California,37.7668,-122.267
397,Georgia,Dougherty County,GA,"Albany, Georgia, Dougherty County","Albany, Georgia",Albany,Albany,GA,Dougherty,Georgia,31.5776,-84.1762
398,Illinois,Cook County,IL,"Arlington Heights, Illinois, Cook County","Arlington Heights, Illinois",Arlington Heights,Arlington Heights,IL,Cook,Illinois,42.0955,-87.9826
399,Pennsylvania,Lackawanna County,PA,"Scranton, Pennsylvania, Lackawanna County","Scranton, Pennsylvania",Scranton,Scranton,PA,Lackawanna,Pennsylvania,41.4044,-75.6649
400,Illinois,Cook County,IL,"Evanston, Illinois, Cook County","Evanston, Illinois",Evanston,Evanston,IL,Cook,Illinois,42.0464,-87.6943
401,Michigan,Kalamazoo County,MI,"Kalamazoo, Michigan, Kalamazoo County","Kalamazoo, Michigan",Kalamazoo,Kalamazoo,MI,Kalamazoo,Michigan,42.2749,-85.5882
402,California,San Bernardino County,CA,"Upland, California, San Bernardino County","Upland, California",Upland,Upland,CA,San Bernardino,California,34.1178,-117.6604
403,Arkansas,Washington County,AR,"Springdale, Arkansas, Washington County","Springdale, Arkansas",Springdale,Springdale,AR,Washington,Arkansas,36.1901,-94.1574
404,Illinois,Cook County,IL,"Schaumburg, Illinois, Cook County","Schaumburg, Illinois",Schaumburg,Schaumburg,IL,Cook,Illinois,42.0308,-88.0838
405,South Carolina,Charleston County,SC,"Mount Pleasant, South Carolina, Charleston County","Mount Pleasant, South Carolina",Mount Pleasant,Mount Pleasant,SC,Charleston,South Carolina,32.8537,-79.8203
406,Washington,King County,WA,"Auburn, Washington, King County","Auburn, Washington",Auburn,Auburn,WA,King,Washington,47.3039,-122.2108
407,Illinois,Macon County,IL,"Decatur, Illinois, Macon County","Decatur, Illinois",Decatur,Decatur,IL,Macon,Illinois,39.8557,-88.9342
408,California,Contra Costa County,CA,"San Ramon, California, Contra Costa County","San Ramon, California",San Ramon,San Ramon,CA,Contra Costa,California,37.7624,-121.9365
409,California,Alameda County,CA,"Pleasanton, California, Alameda County","Pleasanton, California",Pleasanton,Pleasanton,CA,Alameda,California,37.6663,-121.8805
410,Michigan,Kent County,MI,"Wyoming, Michigan, Kent County","Wyoming, Michigan",Wyoming,Wyoming,MI,Kent,Michigan,42.8908,-85.7066
411,Minnesota,Hennepin County,MN,"Plymouth, Minnesota, Hennepin County","Plymouth, Minnesota",Plymouth,Plymouth,MN,Hennepin,Minnesota,45.0225,-93.4617
412,Illinois,Will County,IL,"Bolingbrook, Illinois, Will County","Bolingbrook, Illinois",Bolingbrook,Bolingbrook,IL,Will,Illinois,41.6901,-88.1021
413,Texas,Hidalgo County,TX,"Pharr, Texas, Hidalgo County","Pharr, Texas",Pharr,Pharr,TX,Hidalgo,Texas,26.1685,-98.1904
414,Wisconsin,Outagamie County,WI,"Appleton, Wisconsin, Outagamie County","Appleton, Wisconsin",Appleton,Appleton,WI,Outagamie,Wisconsin,44.278,-88.3892
415,North Carolina,Gaston County,NC,"Gastonia, North Carolina, Gaston County","Gastonia, North Carolina",Gastonia,Gastonia,NC,Gaston,North Carolina,35.2494,-81.1854
416,California,Sacramento County,CA,"Folsom, California, Sacramento County","Folsom, California",Folsom,Folsom,CA,Sacramento,California,38.6668,-121.1422
417,Michigan,Oakland County,MI,"Southfield, Michigan, Oakland County","Southfield, Michigan",Southfield,Southfield,MI,Oakland,Michigan,42.4765,-83.2605
418,Michigan,Oakland County,MI,"Rochester Hills, Michigan, Oakland County","Rochester Hills, Michigan",Rochester Hills,Rochester Hills,MI,Oakland,Michigan,42.6645,-83.1563
419,Connecticut,Hartford County,CT,"New Britain, Connecticut, Hartford County","New Britain, Connecticut",New Britain,New Britain,CT,Hartford,Connecticut,41.6759,-72.7862
420,Arizona,Maricopa County,AZ,"Goodyear, Arizona, Maricopa County","Goodyear, Arizona",Goodyear,Goodyear,AZ,Maricopa,Arizona,33.2614,-112.3622
421,Ohio,Stark County,OH,"Canton, Ohio, Stark County","Canton, Ohio",Canton,Canton,OH,Stark,Ohio,40.8078,-81.3676
422,Georgia,Houston County,GA,"Warner Robins, Georgia, Houston County","Warner Robins, Georgia",Warner Robins,Warner Robins,GA,Houston,Georgia,32.5961,-83.6527
423,California,Alameda County,CA,"Union City, California, Alameda County","Union City, California",Union City,Union City,CA,Alameda,California,37.6032,-122.0181
424,California,Riverside County,CA,"Perris, California, Riverside County","Perris, California",Perris,Perris,CA,Riverside,California,33.7898,-117.2233
425,California,San Joaquin County,CA,"Manteca, California, San Joaquin County","Manteca, California",Manteca,Manteca,CA,San Joaquin,California,37.7927,-121.2264
426,Iowa,Johnson County,IA,"Iowa City, Iowa, Johnson County","Iowa City, Iowa",Iowa City,Iowa City,IA,Johnson,Iowa,41.6559,-91.5303
427,Arkansas,Craighead County,AR,"Jonesboro, Arkansas, Craighead County","Jonesboro, Arkansas",Jonesboro,Jonesboro,AR,Craighead,Arkansas,35.8212,-90.6791
428,Delaware,New Castle County,DE,"Wilmington, Delaware, New Castle County","Wilmington, Delaware",Wilmington,Wilmington,DE,New Castle,Delaware,39.7415,-75.5416
429,California,Los Angeles County,CA,"Lynwood, California, Los Angeles County","Lynwood, California",Lynwood,Lynwood,CA,Los Angeles,California,33.924,-118.2016
430,Colorado,Larimer County,CO,"Loveland, Colorado, Larimer County","Loveland, Colorado",Loveland,Loveland,CO,Larimer,Colorado,40.4166,-105.0623
431,Rhode Island,Providence County,RI,"Pawtucket, Rhode Island, Providence County","Pawtucket, Rhode Island",Pawtucket,Pawtucket,RI,Providence,Rhode Island,41.8744,-71.3743
432,Florida,Palm Beach County,FL,"Boynton Beach, Florida, Palm Beach County","Boynton Beach, Florida",Boynton Beach,Boynton Beach,FL,Palm Beach,Florida,26.5281,-80.0811
433,Wisconsin,Waukesha County,WI,"Waukesha, Wisconsin, Waukesha County","Waukesha, Wisconsin",Waukesha,Waukesha,WI,Waukesha,Wisconsin,43.0087,-88.2464
434,Mississippi,Harrison County,MS,"Gulfport, Mississippi, Harrison County","Gulfport, Mississippi",Gulfport,Gulfport,MS,Harrison,Mississippi,30.4274,-89.0704
435,California,San Bernardino County,CA,"Apple Valley, California, San Bernardino County","Apple Valley, California",Apple Valley,Apple Valley,CA,San Bernardino,California,34.5352,-117.2109
436,New Jersey,Passaic County,NJ,"Passaic, New Jersey, Passaic County","Passaic, New Jersey",Passaic,Passaic,NJ,Passaic,New Jersey,40.8574,-74.1282
437,South Dakota,Pennington County,SD,"Rapid City, South Dakota, Pennington County","Rapid City, South Dakota",Rapid City,Rapid City,SD,Pennington,South Dakota,44.0716,-103.2204
438,Utah,Davis County,UT,"Layton, Utah, Davis County","Layton, Utah",Layton,Layton,UT,Davis,Utah,41.077,-111.962
439,Indiana,Tippecanoe County,IN,"Lafayette, Indiana, Tippecanoe County","Lafayette, Indiana",Lafayette,Lafayette,IN,Tippecanoe,Indiana,40.3991,-86.8593
440,California,Stanislaus County,CA,"Turlock, California, Stanislaus County","Turlock, California",Turlock,Turlock,CA,Stanislaus,California,37.5053,-120.8588
441,Indiana,Delaware County,IN,"Muncie, Indiana, Delaware County","Muncie, Indiana",Muncie,Muncie,IN,Delaware,Indiana,40.1989,-85.395
442,Texas,Bell County,TX,"Temple, Texas, Bell County","Temple, Texas",Temple,Temple,TX,Bell,Texas,31.1068,-97.3891
443,Texas,Fort Bend County,TX,"Missouri City, Texas, Fort Bend County","Missouri City, Texas",Missouri City,Missouri City,TX,Fort Bend,Texas,29.563,-95.5365
444,California,San Bernardino County,CA,"Redlands, California, San Bernardino County","Redlands, California",Redlands,Redlands,CA,San Bernardino,California,34.0512,-117.1712
445,New Mexico,Santa Fe County,NM,"Santa Fe, New Mexico, Santa Fe County","Santa Fe, New Mexico",Santa Fe,Santa Fe,NM,Santa Fe,New Mexico,35.6619,-105.9819
446,Florida,Broward County,FL,"Lauderhill, Florida, Broward County","Lauderhill, Florida",Lauderhill,Lauderhill,FL,Broward,Florida,26.1605,-80.2241
447,California,Santa Clara County,CA,"Milpitas, California, Santa Clara County","Milpitas, California",Milpitas,Milpitas,CA,Santa Clara,California,37.4336,-121.8921
448,Illinois,Cook County,IL,"Palatine, Illinois, Cook County","Palatine, Illinois",Palatine,Palatine,IL,Cook,Illinois,42.118,-88.043
449,Montana,Missoula County,MT,"Missoula, Montana, Missoula County","Missoula, Montana",Missoula,Missoula,MT,Missoula,Montana,46.8751,-114.0214
450,South Carolina,York County,SC,"Rock Hill, South Carolina, York County","Rock Hill, South Carolina",Rock Hill,Rock Hill,SC,York,South Carolina,34.9415,-81.0241
451,North Carolina,Onslow County,NC,"Jacksonville, North Carolina, Onslow County","Jacksonville, North Carolina",Jacksonville,Jacksonville,NC,Onslow,North Carolina,34.7289,-77.3941
452,Tennessee,Williamson County,TN,"Franklin, Tennessee, Williamson County","Franklin, Tennessee",Franklin,Franklin,TN,Williamson,Tennessee,35.92,-86.8516
453,Arizona,Coconino County,AZ,"Flagstaff, Arizona, Coconino County","Flagstaff, Arizona",Flagstaff,Flagstaff,AZ,Coconino,Arizona,35.1872,-111.6194
454,Texas,Denton County,TX,"Flower Mound, Texas, Denton County","Flower Mound, Texas",Flower Mound,Flower Mound,TX,Denton,Texas,33.0343,-97.1146
455,Florida,Broward County,FL,"Weston, Florida, Broward County","Weston, Florida",Weston,Weston,FL,Broward,Florida,26.1006,-80.4054
456,Iowa,Black Hawk County,IA,"Waterloo, Iowa, Black Hawk County","Waterloo, Iowa",Waterloo,Waterloo,IA,Black Hawk,Iowa,42.4918,-92.3522
457,New Jersey,Hudson County,NJ,"Union City, New Jersey, Hudson County","Union City, New Jersey",Union City,Union City,NJ,Hudson,New Jersey,40.7675,-74.0323
458,New York,Westchester County,NY,"Mount Vernon, New York, Westchester County","Mount Vernon, New York",Mount Vernon,Mount Vernon,NY,Westchester,New York,40.9136,-73.8291
459,Florida,Lee County,FL,"Fort Myers, Florida, Lee County","Fort Myers, Florida",Fort Myers,Fort Myers,FL,Lee,Florida,26.6194,-81.8302
460,Alabama,Houston County,AL,"Dothan, Alabama, Houston County","Dothan, Alabama",Dothan,Dothan,AL,Houston,Alabama,31.2336,-85.407
461,California,Sacramento County,CA,"Rancho Cordova, California, Sacramento County","Rancho Cordova, California",Rancho Cordova,Rancho Cordova,CA,Sacramento,California,38.5737,-121.2527
462,California,Los Angeles County,CA,"Redondo Beach, California, Los Angeles County","Redondo Beach, California",Redondo Beach,Redondo Beach,CA,Los Angeles,California,33.8577,-118.3765
463,Tennessee,Madison County,TN,"Jackson, Tennessee, Madison County","Jackson, Tennessee",Jackson,Jackson,TN,Madison,Tennessee,35.6538,-88.8354
464,Washington,Franklin County,WA,"Pasco, Washington, Franklin County","Pasco, Washington",Pasco,Pasco,WA,Franklin,Washington,46.2506,-119.1305
465,Wisconsin,Eau Claire County,WI,"Eau Claire, Wisconsin, Eau Claire County","Eau Claire, Wisconsin",Eau Claire,Eau Claire,WI,Eau Claire,Wisconsin,44.8197,-91.4948
466,Texas,Tarrant County,TX,"North Richland Hills, Texas, Tarrant County","North Richland Hills, Texas",North Richland Hills,North Richland Hills,TX,Tarrant,Texas,32.8604,-97.218
467,North Dakota,Burleigh County,ND,"Bismarck, North Dakota, Burleigh County","Bismarck, North Dakota",Bismarck,Bismarck,ND,Burleigh,North Dakota,46.8143,-100.7694
468,California,Orange County,CA,"Yorba Linda, California, Orange County","Yorba Linda, California",Yorba Linda,Yorba Linda,CA,Orange,California,33.889,-117.7714
469,California,Contra Costa County,CA,"Walnut Creek, California, Contra Costa County","Walnut Creek, California",Walnut Creek,Walnut Creek,CA,Contra Costa,California,37.9024,-122.0399
470,Maryland,Frederick County,MD,"Frederick, Maryland, Frederick County","Frederick, Maryland",Frederick,Frederick,MD,Frederick,Maryland,39.4337,-77.4141
471,Wisconsin,Winnebago County,WI,"Oshkosh, Wisconsin, Winnebago County","Oshkosh, Wisconsin",Oshkosh,Oshkosh,WI,Winnebago,Wisconsin,44.0227,-88.5619
472,California,Contra Costa County,CA,"Pittsburg, California, Contra Costa County","Pittsburg, California",Pittsburg,Pittsburg,CA,Contra Costa,California,38.0182,-121.8965
473,California,Santa Clara County,CA,"Palo Alto, California, Santa Clara County","Palo Alto, California",Palo Alto,Palo Alto,CA,Santa Clara,California,37.3905,-122.1468
474,Maine,Cumberland County,ME,"Portland, Maine, Cumberland County","Portland, Maine",Portland,Portland,ME,Cumberland,Maine,43.6773,-70.2715
475,California,Yolo County,CA,"Davis, California, Yolo County","Davis, California",Davis,Davis,CA,Yolo,California,38.5553,-121.737
476,California,San Mateo County,CA,"South San Francisco, California, San Mateo County","South San Francisco, California",South San Francisco,South San Francisco,CA,San Mateo,California,37.6538,-122.4196
477,California,Ventura County,CA,"Camarillo, California, Ventura County","Camarillo, California",Camarillo,Camarillo,CA,Ventura,California,34.223,-119.0321
478,Arkansas,Pulaski County,AR,"North Little Rock, Arkansas, Pulaski County","North Little Rock, Arkansas",North Little Rock,North Little Rock,AR,Pulaski,Arkansas,34.7807,-92.2371
479,New York,Schenectady County,NY,"Schenectady, New York, Schenectady County","Schenectady, New York",Schenectady,Schenectady,NY,Schenectady,New York,42.8025,-73.9275
480,Maryland,Montgomery County,MD,"Gaithersburg, Maryland, Montgomery County","Gaithersburg, Maryland",Gaithersburg,Gaithersburg,MD,Montgomery,Maryland,39.1346,-77.2131
481,Texas,Cameron County,TX,"Harlingen, Texas, Cameron County","Harlingen, Texas",Harlingen,Harlingen,TX,Cameron,Texas,26.1916,-97.6977
482,Minnesota,Washington County,MN,"Woodbury, Minnesota, Washington County","Woodbury, Minnesota",Woodbury,Woodbury,MN,Washington,Minnesota,44.9057,-92.923
483,Minnesota,Dakota County,MN,"Eagan, Minnesota, Dakota County","Eagan, Minnesota",Eagan,Eagan,MN,Dakota,Minnesota,44.817,-93.1638
484,California,Sutter County,CA,"Yuba City, California, Sutter County","Yuba City, California",Yuba City,Yuba City,CA,Sutter,California,39.1357,-121.6383
485,Minnesota,Hennepin County,MN,"Maple Grove, Minnesota, Hennepin County","Maple Grove, Minnesota",Maple Grove,Maple Grove,MN,Hennepin,Minnesota,45.1089,-93.4626
486,Ohio,Mahoning County,OH,"Youngstown, Ohio, Mahoning County","Youngstown, Ohio",Youngstown,Youngstown,OH,Mahoning,Ohio,41.0993,-80.6463
487,Illinois,Cook County,IL,"Skokie, Illinois, Cook County","Skokie, Illinois",Skokie,Skokie,IL,Cook,Illinois,42.036,-87.74
488,Florida,Osceola County,FL,"Kissimmee, Florida, Osceola County","Kissimmee, Florida",Kissimmee,Kissimmee,FL,Osceola,Florida,28.3041,-81.4169
489,Tennessee,Washington County,TN,"Johnson City, Tennessee, Washington County","Johnson City, Tennessee",Johnson City,Johnson City,TN,Washington,Tennessee,36.3406,-82.3806
490,California,Orange County,CA,"San Clemente, California, Orange County","San Clemente, California",San Clemente,San Clemente,CA,Orange,California,33.4499,-117.6102
491,New Jersey,Hudson County,NJ,"Bayonne, New Jersey, Hudson County","Bayonne, New Jersey",Bayonne,Bayonne,NJ,Hudson,New Jersey,40.6668,-74.1158
492,California,Orange County,CA,"Laguna Niguel, California, Orange County","Laguna Niguel, California",Laguna Niguel,Laguna Niguel,CA,Orange,California,33.5275,-117.705
493,New Jersey,Essex County,NJ,"East Orange, New Jersey, Essex County","East Orange, New Jersey",East Orange,East Orange,NJ,Essex,New Jersey,40.7651,-74.2117
494,Kansas,Johnson County,KS,"Shawnee, Kansas, Johnson County","Shawnee, Kansas",Shawnee,Shawnee,KS,Johnson,Kansas,39.0158,-94.8076
495,Florida,Miami-Dade County,FL,"Homestead, Florida, Miami-Dade County","Homestead, Florida",Homestead,Homestead,FL,Miami-Dade,Florida,25.4665,-80.4472
496,Maryland,Montgomery County,MD,"Rockville, Maryland, Montgomery County","Rockville, Maryland",Rockville,Rockville,MD,Montgomery,Maryland,39.0834,-77.1553
497,Florida,Palm Beach County,FL,"Delray Beach, Florida, Palm Beach County","Delray Beach, Florida",Delray Beach,Delray Beach,FL,Palm Beach,Florida,26.455,-80.0905
498,Wisconsin,Rock County,WI,"Janesville, Wisconsin, Rock County","Janesville, Wisconsin",Janesville,Janesville,WI,Rock,Wisconsin,42.6854,-89.0135
499,Arkansas,Faulkner County,AR,"Conway, Arkansas, Faulkner County","Conway, Arkansas",Conway,Conway,AR,Faulkner,Arkansas,35.0753,-92.4692
500,California,Los Angeles County,CA,"Pico Rivera, California, Los Angeles County","Pico Rivera, California",Pico Rivera,Pico Rivera,CA,Los Angeles,California,33.9901,-118.0888
501,Ohio,Lorain County,OH,"Lorain, Ohio, Lorain County","Lorain, Ohio",Lorain,Lorain,OH,Lorain,Ohio,41.4409,-82.184
502,California,Los Angeles County,CA,"Montebello, California, Los Angeles County","Montebello, California",Montebello,Montebello,CA,Los Angeles,California,34.0155,-118.1108
503,California,San Joaquin County,CA,"Lodi, California, San Joaquin County","Lodi, California",Lodi,Lodi,CA,San Joaquin,California,38.1218,-121.2932
504,Texas,Comal County,TX,"New Braunfels, Texas, Comal County","New Braunfels, Texas",New Braunfels,New Braunfels,TX,Comal,Texas,29.6994,-98.1148
505,Washington,Snohomish County,WA,"Marysville, Washington, Snohomish County","Marysville, Washington",Marysville,Marysville,WA,Snohomish,Washington,48.0809,-122.1561
506,Florida,Broward County,FL,"Tamarac, Florida, Broward County","Tamarac, Florida",Tamarac,Tamarac,FL,Broward,Florida,26.2056,-80.2539
507,California,Madera County,CA,"Madera, California, Madera County","Madera, California",Madera,Madera,CA,Madera,California,36.963,-120.0778
508,Texas,Montgomery County,TX,"Conroe, Texas, Montgomery County","Conroe, Texas",Conroe,Conroe,TX,Montgomery,Texas,30.3238,-95.4824
509,California,Santa Cruz County,CA,"Santa Cruz, California, Santa Cruz County","Santa Cruz, California",Santa Cruz,Santa Cruz,CA,Santa Cruz,California,36.9789,-122.0346
510,Minnesota,Hennepin County,MN,"Eden Prairie, Minnesota, Hennepin County","Eden Prairie, Minnesota",Eden Prairie,Eden Prairie,MN,Hennepin,Minnesota,44.8488,-93.4595
511,Wyoming,Laramie County,WY,"Cheyenne, Wyoming, Laramie County","Cheyenne, Wyoming",Cheyenne,Cheyenne,WY,Laramie,Wyoming,41.135,-104.7902
512,Florida,Volusia County,FL,"Daytona Beach, Florida, Volusia County","Daytona Beach, Florida",Daytona Beach,Daytona Beach,FL,Volusia,Florida,29.1995,-81.0982
513,Georgia,Fulton County,GA,"Alpharetta, Georgia, Fulton County","Alpharetta, Georgia",Alpharetta,Alpharetta,GA,Fulton,Georgia,34.0704,-84.2738
514,Ohio,Butler County,OH,"Hamilton, Ohio, Butler County","Hamilton, Ohio",Hamilton,Hamilton,OH,Butler,Ohio,39.3939,-84.5653
515,Massachusetts,Middlesex County,MA,"Waltham, Massachusetts, Middlesex County","Waltham, Massachusetts",Waltham,Waltham,MA,Middlesex,Massachusetts,42.3889,-71.2423
516,Minnesota,Anoka County,MN,"Coon Rapids, Minnesota, Anoka County","Coon Rapids, Minnesota",Coon Rapids,Coon Rapids,MN,Anoka,Minnesota,45.1755,-93.3094
517,Massachusetts,Essex County,MA,"Haverhill, Massachusetts, Essex County","Haverhill, Massachusetts",Haverhill,Haverhill,MA,Essex,Massachusetts,42.7838,-71.0871
518,Iowa,Pottawattamie County,IA,"Council Bluffs, Iowa, Pottawattamie County","Council Bluffs, Iowa",Council Bluffs,Council Bluffs,IA,Pottawattamie,Iowa,41.2369,-95.8516
519,Michigan,Wayne County,MI,"Taylor, Michigan, Wayne County","Taylor, Michigan",Taylor,Taylor,MI,Wayne,Michigan,42.226,-83.2688
520,New York,Oneida County,NY,"Utica, New York, Oneida County","Utica, New York",Utica,Utica,NY,Oneida,New York,43.0962,-75.2261
521,Iowa,Story County,IA,"Ames, Iowa, Story County","Ames, Iowa",Ames,Ames,IA,Story,Iowa,42.0256,-93.6217
522,California,Orange County,CA,"La Habra, California, Orange County","La Habra, California",La Habra,La Habra,CA,Orange,California,33.9282,-117.9515
523,California,San Diego County,CA,"Encinitas, California, San Diego County","Encinitas, California",Encinitas,Encinitas,CA,San Diego,California,33.0492,-117.261
524,Kentucky,Warren County,KY,"Bowling Green, Kentucky, Warren County","Bowling Green, Kentucky",Bowling Green,Bowling Green,KY,Warren,Kentucky,36.9716,-86.4378
525,Minnesota,Dakota County,MN,"Burnsville, Minnesota, Dakota County","Burnsville, Minnesota",Burnsville,Burnsville,MN,Dakota,Minnesota,44.7648,-93.2793
526,South Carolina,Greenville County,SC,"Greenville, South Carolina, Greenville County","Greenville, South Carolina",Greenville,Greenville,SC,Greenville,South Carolina,34.8354,-82.3646
527,Iowa,Polk County,IA,"West Des Moines, Iowa, Polk County","West Des Moines, Iowa",West Des Moines,West Des Moines,IA,Polk,Iowa,41.5521,-93.7806
528,Texas,Williamson County,TX,"Cedar Park, Texas, Williamson County","Cedar Park, Texas",Cedar Park,Cedar Park,TX,Williamson,Texas,30.5105,-97.8197
529,California,Tulare County,CA,"Tulare, California, Tulare County","Tulare, California",Tulare,Tulare,CA,Tulare,California,36.1995,-119.34
530,California,Los Angeles County,CA,"Monterey Park, California, Los Angeles County","Monterey Park, California",Monterey Park,Monterey Park,CA,Los Angeles,California,34.0497,-118.1326
531,New Jersey,Cumberland County,NJ,"Vineland, New Jersey, Cumberland County","Vineland, New Jersey",Vineland,Vineland,NJ,Cumberland,New Jersey,39.4653,-74.9981
532,Indiana,Vigo County,IN,"Terre Haute, Indiana, Vigo County","Terre Haute, Indiana",Terre Haute,Terre Haute,IN,Vigo,Indiana,39.466,-87.3751
533,Florida,Miami-Dade County,FL,"North Miami, Florida, Miami-Dade County","North Miami, Florida",North Miami,North Miami,FL,Miami-Dade,Florida,25.9008,-80.1686
534,Texas,Tarrant County,TX,"Mansfield, Texas, Tarrant County","Mansfield, Texas",Mansfield,Mansfield,TX,Tarrant,Texas,32.569,-97.1213
535,Wisconsin,Milwaukee County,WI,"West Allis, Wisconsin, Milwaukee County","West Allis, Wisconsin",West Allis,West Allis,WI,Milwaukee,Wisconsin,43.0068,-88.0296
536,Connecticut,Hartford County,CT,"Bristol, Connecticut, Hartford County","Bristol, Connecticut",Bristol,Bristol,CT,Hartford,Connecticut,41.6812,-72.9407
537,Utah,Salt Lake County,UT,"Taylorsville, Utah, Salt Lake County","Taylorsville, Utah",Taylorsville,Taylorsville,UT,Salt Lake,Utah,40.6569,-111.9493
538,Massachusetts,Middlesex County,MA,"Malden, Massachusetts, Middlesex County","Malden, Massachusetts",Malden,Malden,MA,Middlesex,Massachusetts,42.4305,-71.0576
539,Connecticut,New Haven County,CT,"Meriden, Connecticut, New Haven County","Meriden, Connecticut",Meriden,Meriden,CT,New Haven,Connecticut,41.5369,-72.7946
540,Minnesota,Anoka County,MN,"Blaine, Minnesota, Anoka County","Blaine, Minnesota",Blaine,Blaine,MN,Anoka,Minnesota,45.1696,-93.2077
541,Florida,Palm Beach County,FL,"Wellington, Florida, Palm Beach County","Wellington, Florida",Wellington,Wellington,FL,Palm Beach,Florida,26.6461,-80.2699
542,California,Santa Clara County,CA,"Cupertino, California, Santa Clara County","Cupertino, California",Cupertino,Cupertino,CA,Santa Clara,California,37.3168,-122.0466
543,Oregon,Lane County,OR,"Springfield, Oregon, Lane County","Springfield, Oregon",Springfield,Springfield,OR,Lane,Oregon,44.0538,-122.9811
544,Arkansas,Benton County,AR,"Rogers, Arkansas, Benton County","Rogers, Arkansas",Rogers,Rogers,AR,Benton,Arkansas,36.317,-94.1531
545,California,Los Angeles County,CA,"Gardena, California, Los Angeles County","Gardena, California",Gardena,Gardena,CA,Los Angeles,California,33.8943,-118.3072
546,Michigan,Oakland County,MI,"Pontiac, Michigan, Oakland County","Pontiac, Michigan",Pontiac,Pontiac,MI,Oakland,Michigan,42.6493,-83.2878
547,California,San Diego County,CA,"National City, California, San Diego County","National City, California",National City,National City,CA,San Diego,California,32.6654,-117.0983
548,Colorado,Mesa County,CO,"Grand Junction, Colorado, Mesa County","Grand Junction, Colorado",Grand Junction,Grand Junction,CO,Mesa,Colorado,39.0877,-108.5673
549,California,Placer County,CA,"Rocklin, California, Placer County","Rocklin, California",Rocklin,Rocklin,CA,Placer,California,38.8075,-121.2489
550,North Carolina,Orange County,NC,"Chapel Hill, North Carolina, Orange County","Chapel Hill, North Carolina",Chapel Hill,Chapel Hill,NC,Orange,North Carolina,35.9271,-79.0391
551,Wyoming,Natrona County,WY,"Casper, Wyoming, Natrona County","Casper, Wyoming",Casper,Casper,WY,Natrona,Wyoming,42.842,-106.3208
552,Colorado,Broomfield County,CO,"Broomfield, Colorado, Broomfield County","Broomfield, Colorado",Broomfield,Broomfield,CO,Broomfield,Colorado,39.9542,-105.0526
553,California,Sonoma County,CA,"Petaluma, California, Sonoma County","Petaluma, California",Petaluma,Petaluma,CA,Sonoma,California,38.2423,-122.6266
554,Utah,Salt Lake County,UT,"South Jordan, Utah, Salt Lake County","South Jordan, Utah",South Jordan,South Jordan,UT,Salt Lake,Utah,40.557,-111.9784
555,Ohio,Clark County,OH,"Springfield, Ohio, Clark County","Springfield, Ohio",Springfield,Springfield,OH,Clark,Ohio,39.93,-83.7959
556,Montana,Cascade County,MT,"Great Falls, Montana, Cascade County","Great Falls, Montana",Great Falls,Great Falls,MT,Cascade,Montana,47.5022,-111.2996
557,Florida,Sarasota County,FL,"North Port, Florida, Sarasota County","North Port, Florida",North Port,North Port,FL,Sarasota,Florida,27.0576,-82.1977
558,Washington,Pierce County,WA,"Lakewood, Washington, Pierce County","Lakewood, Washington",Lakewood,Lakewood,WA,Pierce,Washington,47.1628,-122.5299
559,Georgia,Cobb County,GA,"Marietta, Georgia, Cobb County","Marietta, Georgia",Marietta,Marietta,GA,Cobb,Georgia,33.9533,-84.5422
560,California,Marin County,CA,"San Rafael, California, Marin County","San Rafael, California",San Rafael,San Rafael,CA,Marin,California,37.9905,-122.5221
561,Michigan,Oakland County,MI,"Royal Oak, Michigan, Oakland County","Royal Oak, Michigan",Royal Oak,Royal Oak,MI,Oakland,Michigan,42.5084,-83.1539
562,Illinois,Cook County,IL,"Des Plaines, Illinois, Cook County","Des Plaines, Illinois",Des Plaines,Des Plaines,IL,Cook,Illinois,42.0345,-87.9008
563,California,Los Angeles County,CA,"Huntington Park, California, Los Angeles County","Huntington Park, California",Huntington Park,Huntington Park,CA,Los Angeles,California,33.98,-118.2167
564,California,San Diego County,CA,"La Mesa, California, San Diego County","La Mesa, California",La Mesa,La Mesa,CA,San Diego,California,32.7703,-117.0204
565,Illinois,Cook County,IL,"Orland Park, Illinois, Cook County","Orland Park, Illinois",Orland Park,Orland Park,IL,Cook,Illinois,41.6075,-87.8619
566,Alabama,Lee County,AL,"Auburn, Alabama, Lee County","Auburn, Alabama",Auburn,Auburn,AL,Lee,Alabama,32.6087,-85.4903
567,Minnesota,Dakota County,MN,"Lakeville, Minnesota, Dakota County","Lakeville, Minnesota",Lakeville,Lakeville,MN,Dakota,Minnesota,44.6774,-93.252
568,Kentucky,Daviess County,KY,"Owensboro, Kentucky, Daviess County","Owensboro, Kentucky",Owensboro,Owensboro,KY,Daviess,Kentucky,37.7575,-87.1172
569,Oklahoma,Cleveland County,OK,"Moore, Oklahoma, Cleveland County","Moore, Oklahoma",Moore,Moore,OK,Cleveland,Oklahoma,35.3293,-97.4757
570,Florida,Palm Beach County,FL,"Jupiter, Florida, Palm Beach County","Jupiter, Florida",Jupiter,Jupiter,FL,Palm Beach,Florida,26.92,-80.1128
571,Idaho,Bonneville County,ID,"Idaho Falls, Idaho, Bonneville County","Idaho Falls, Idaho",Idaho Falls,Idaho Falls,ID,Bonneville,Idaho,43.4871,-112.0362
572,Iowa,Dubuque County,IA,"Dubuque, Iowa, Dubuque County","Dubuque, Iowa",Dubuque,Dubuque,IA,Dubuque,Iowa,42.5002,-90.707
573,Tennessee,Shelby County,TN,"Bartlett, Tennessee, Shelby County","Bartlett, Tennessee",Bartlett,Bartlett,TN,Shelby,Tennessee,35.2337,-89.8195
574,Texas,Dallas County,TX,"Rowlett, Texas, Dallas County","Rowlett, Texas",Rowlett,Rowlett,TX,Dallas,Texas,32.9155,-96.5489
575,Michigan,Oakland County,MI,"Novi, Michigan, Oakland County","Novi, Michigan",Novi,Novi,MI,Oakland,Michigan,42.4786,-83.4893
576,New York,Westchester County,NY,"White Plains, New York, Westchester County","White Plains, New York",White Plains,White Plains,NY,Westchester,New York,41.022,-73.7547
577,California,Los Angeles County,CA,"Arcadia, California, Los Angeles County","Arcadia, California",Arcadia,Arcadia,CA,Los Angeles,California,34.1342,-118.0373
578,Washington,King County,WA,"Redmond, Washington, King County","Redmond, Washington",Redmond,Redmond,WA,King,Washington,47.6763,-122.1169
579,California,Riverside County,CA,"Lake Elsinore, California, Riverside County","Lake Elsinore, California",Lake Elsinore,Lake Elsinore,CA,Riverside,California,33.6847,-117.3344
580,Florida,Marion County,FL,"Ocala, Florida, Marion County","Ocala, Florida",Ocala,Ocala,FL,Marion,Florida,29.178,-82.1511
581,Illinois,Cook County,IL,"Tinley Park, Illinois, Cook County","Tinley Park, Illinois",Tinley Park,Tinley Park,IL,Cook,Illinois,41.567,-87.8049
582,Florida,Volusia County,FL,"Port Orange, Florida, Volusia County","Port Orange, Florida",Port Orange,Port Orange,FL,Volusia,Florida,29.1085,-81.0137
583,Massachusetts,Middlesex County,MA,"Medford, Massachusetts, Middlesex County","Medford, Massachusetts",Medford,Medford,MA,Middlesex,Massachusetts,42.4234,-71.1087
584,Illinois,Cook County,IL,"Oak Lawn, Illinois, Cook County","Oak Lawn, Illinois",Oak Lawn,Oak Lawn,IL,Cook,Illinois,41.7139,-87.7528
585,North Carolina,Nash County,NC,"Rocky Mount, North Carolina, Nash County","Rocky Mount, North Carolina",Rocky Mount,Rocky Mount,NC,Nash,North Carolina,35.9685,-77.804
586,Indiana,Howard County,IN,"Kokomo, Indiana, Howard County","Kokomo, Indiana",Kokomo,Kokomo,IN,Howard,Indiana,40.464,-86.1277
587,Florida,Broward County,FL,"Coconut Creek, Florida, Broward County","Coconut Creek, Florida",Coconut Creek,Coconut Creek,FL,Broward,Florida,26.2803,-80.1842
588,Illinois,Cook County,IL,"Berwyn, Illinois, Cook County","Berwyn, Illinois",Berwyn,Berwyn,IL,Cook,Illinois,41.8433,-87.7909
589,Oklahoma,Oklahoma County,OK,"Midwest City, Oklahoma, Oklahoma County","Midwest City, Oklahoma",Midwest City,Midwest City,OK,Oklahoma,Oklahoma,35.463,-97.371
590,California,Orange County,CA,"Fountain Valley, California, Orange County","Fountain Valley, California",Fountain Valley,Fountain Valley,CA,Orange,California,33.7105,-117.9514
591,Arizona,Maricopa County,AZ,"Buckeye, Arizona, Maricopa County","Buckeye, Arizona",Buckeye,Buckeye,AZ,Maricopa,Arizona,33.4314,-112.6429
592,Michigan,Wayne County,MI,"Dearborn Heights, Michigan, Wayne County","Dearborn Heights, Michigan",Dearborn Heights,Dearborn Heights,MI,Wayne,Michigan,42.3164,-83.2769
593,California,Yolo County,CA,"Woodland, California, Yolo County","Woodland, California",Woodland,Woodland,CA,Yolo,California,38.6712,-121.75
594,Indiana,Hamilton County,IN,"Noblesville, Indiana, Hamilton County","Noblesville, Indiana",Noblesville,Noblesville,IN,Hamilton,Indiana,40.0355,-86.0042
595,Georgia,Lowndes County,GA,"Valdosta, Georgia, Lowndes County","Valdosta, Georgia",Valdosta,Valdosta,GA,Lowndes,Georgia,30.8502,-83.2788
596,California,Los Angeles County,CA,"Diamond Bar, California, Los Angeles County","Diamond Bar, California",Diamond Bar,Diamond Bar,CA,Los Angeles,California,33.9992,-117.8161
597,Kansas,Riley County,KS,"Manhattan, Kansas, Riley County","Manhattan, Kansas",Manhattan,Manhattan,KS,Riley,Kansas,39.1886,-96.6048
598,California,San Diego County,CA,"Santee, California, San Diego County","Santee, California",Santee,Santee,CA,San Diego,California,32.8554,-116.9851
599,Massachusetts,Bristol County,MA,"Taunton, Massachusetts, Bristol County","Taunton, Massachusetts",Taunton,Taunton,MA,Bristol,Massachusetts,41.9036,-71.0943
600,Florida,Seminole County,FL,"Sanford, Florida, Seminole County","Sanford, Florida",Sanford,Sanford,FL,Seminole,Florida,28.7891,-81.2757
601,Ohio,Montgomery County,OH,"Kettering, Ohio, Montgomery County","Kettering, Ohio",Kettering,Kettering,OH,Montgomery,Ohio,39.6956,-84.1494
602,New Jersey,Middlesex County,NJ,"New Brunswick, New Jersey, Middlesex County","New Brunswick, New Jersey",New Brunswick,New Brunswick,NJ,Middlesex,New Jersey,40.487,-74.445
603,Alabama,Morgan County,AL,"Decatur, Alabama, Morgan County","Decatur, Alabama",Decatur,Decatur,AL,Morgan,Alabama,34.5731,-86.9905
604,Massachusetts,Hampden County,MA,"Chicopee, Massachusetts, Hampden County","Chicopee, Massachusetts",Chicopee,Chicopee,MA,Hampden,Massachusetts,42.1764,-72.5719
605,Indiana,Madison County,IN,"Anderson, Indiana, Madison County","Anderson, Indiana",Anderson,Anderson,IN,Madison,Indiana,40.0891,-85.6892
606,Florida,Broward County,FL,"Margate, Florida, Broward County","Margate, Florida",Margate,Margate,FL,Broward,Florida,26.2466,-80.2119
607,Oregon,Benton County,OR,"Corvallis, Oregon, Benton County","Corvallis, Oregon",Corvallis,Corvallis,OR,Benton,Oregon,44.5698,-123.2779
608,California,Riverside County,CA,"Eastvale, California, Riverside County","Eastvale, California",Eastvale,Eastvale,CA,Riverside,California,33.9617,-117.5803
609,California,Tulare County,CA,"Porterville, California, Tulare County","Porterville, California",Porterville,Porterville,CA,Tulare,California,36.0643,-119.0338
610,Connecticut,New Haven County,CT,"West Haven, Connecticut, New Haven County","West Haven, Connecticut",West Haven,West Haven,CT,New Haven,Connecticut,41.2739,-72.9672
611,California,Contra Costa County,CA,"Brentwood, California, Contra Costa County","Brentwood, California",Brentwood,Brentwood,CA,Contra Costa,California,37.9356,-121.719
612,California,Los Angeles County,CA,"Paramount, California, Los Angeles County","Paramount, California",Paramount,Paramount,CA,Los Angeles,California,33.8977,-118.1651
613,North Dakota,Grand Forks County,ND,"Grand Forks, North Dakota, Grand Forks County","Grand Forks, North Dakota",Grand Forks,Grand Forks,ND,Grand Forks,North Dakota,47.9214,-97.0884
614,Texas,Williamson County,TX,"Georgetown, Texas, Williamson County","Georgetown, Texas",Georgetown,Georgetown,TX,Williamson,Texas,30.666,-97.6966
615,Washington,King County,WA,"Shoreline, Washington, King County","Shoreline, Washington",Shoreline,Shoreline,WA,King,Washington,47.7564,-122.3426
616,Illinois,Cook County,IL,"Mount Prospect, Illinois, Cook County","Mount Prospect, Illinois",Mount Prospect,Mount Prospect,IL,Cook,Illinois,42.0641,-87.9375
617,California,Kings County,CA,"Hanford, California, Kings County","Hanford, California",Hanford,Hanford,CA,Kings,California,36.3274,-119.6549
618,Illinois,McLean County,IL,"Normal, Illinois, McLean County","Normal, Illinois",Normal,Normal,IL,McLean,Illinois,40.5217,-88.9884
619,California,Los Angeles County,CA,"Rosemead, California, Los Angeles County","Rosemead, California",Rosemead,Rosemead,CA,Los Angeles,California,34.0689,-118.0823
620,Utah,Utah County,UT,"Lehi, Utah, Utah County","Lehi, Utah",Lehi,Lehi,UT,Utah,Utah,40.4136,-111.8725
621,Idaho,Bannock County,ID,"Pocatello, Idaho, Bannock County","Pocatello, Idaho",Pocatello,Pocatello,ID,Bannock,Idaho,42.8724,-112.4647
622,California,San Bernardino County,CA,"Highland, California, San Bernardino County","Highland, California",Highland,Highland,CA,San Bernardino,California,34.1113,-117.165
623,California,Marin County,CA,"Novato, California, Marin County","Novato, California",Novato,Novato,CA,Marin,California,38.092,-122.5575
624,Texas,Jefferson County,TX,"Port Arthur, Texas, Jefferson County","Port Arthur, Texas",Port Arthur,Port Arthur,TX,Jefferson,Texas,29.8554,-93.9264
625,Texas,Hays County,TX,"San Marcos, Texas, Hays County","San Marcos, Texas",San Marcos,San Marcos,TX,Hays,Texas,29.8734,-97.9356
626,Tennessee,Sumner County,TN,"Hendersonville, Tennessee, Sumner County","Hendersonville, Tennessee",Hendersonville,Hendersonville,TN,Sumner,Tennessee,36.3063,-86.5997
627,Ohio,Lorain County,OH,"Elyria, Ohio, Lorain County","Elyria, Ohio",Elyria,Elyria,OH,Lorain,Ohio,41.376,-82.106
628,Massachusetts,Suffolk County,MA,"Revere, Massachusetts, Suffolk County","Revere, Massachusetts",Revere,Revere,MA,Suffolk,Massachusetts,42.4189,-71.004
629,Texas,Travis County,TX,"Pflugerville, Texas, Travis County","Pflugerville, Texas",Pflugerville,Pflugerville,TX,Travis,Texas,30.4515,-97.6018
630,Indiana,Johnson County,IN,"Greenwood, Indiana, Johnson County","Greenwood, Indiana",Greenwood,Greenwood,IN,Johnson,Indiana,39.6019,-86.1073
631,Nebraska,Sarpy County,NE,"Bellevue, Nebraska, Sarpy County","Bellevue, Nebraska",Bellevue,Bellevue,NE,Sarpy,Nebraska,41.1485,-95.939
632,Illinois,DuPage County,IL,"Wheaton, Illinois, DuPage County","Wheaton, Illinois",Wheaton,Wheaton,IL,DuPage,Illinois,41.8561,-88.1085
633,Georgia,Cobb County,GA,"Smyrna, Georgia, Cobb County","Smyrna, Georgia",Smyrna,Smyrna,GA,Cobb,Georgia,33.8633,-84.5168
634,Florida,Sarasota County,FL,"Sarasota, Florida, Sarasota County","Sarasota, Florida",Sarasota,Sarasota,FL,Sarasota,Florida,27.3387,-82.5432
635,Missouri,Jackson County,MO,"Blue Springs, Missouri, Jackson County","Blue Springs, Missouri",Blue Springs,Blue Springs,MO,Jackson,Missouri,39.0124,-94.2721
636,California,San Bernardino County,CA,"Colton, California, San Bernardino County","Colton, California",Colton,Colton,CA,San Bernardino,California,34.0538,-117.3255
637,Texas,Tarrant County,TX,"Euless, Texas, Tarrant County","Euless, Texas",Euless,Euless,TX,Tarrant,Texas,32.8508,-97.08
638,Colorado,Douglas County,CO,"Castle Rock, Colorado, Douglas County","Castle Rock, Colorado",Castle Rock,Castle Rock,CO,Douglas,Colorado,39.3763,-104.8535
639,California,Riverside County,CA,"Cathedral City, California, Riverside County","Cathedral City, California",Cathedral City,Cathedral City,CA,Riverside,California,33.8362,-116.4642
640,Tennessee,Sullivan County,TN,"Kingsport, Tennessee, Sullivan County","Kingsport, Tennessee",Kingsport,Kingsport,TN,Sullivan,Tennessee,36.5224,-82.5454
641,Arizona,Mohave County,AZ,"Lake Havasu City, Arizona, Mohave County","Lake Havasu City, Arizona",Lake Havasu City,Lake Havasu City,AZ,Mohave,Arizona,34.5006,-114.3113
642,Florida,Escambia County,FL,"Pensacola, Florida, Escambia County","Pensacola, Florida",Pensacola,Pensacola,FL,Escambia,Florida,30.4413,-87.1911
643,New Jersey,Hudson County,NJ,"Hoboken, New Jersey, Hudson County","Hoboken, New Jersey",Hoboken,Hoboken,NJ,Hudson,New Jersey,40.7452,-74.0281
644,California,San Bernardino County,CA,"Yucaipa, California, San Bernardino County","Yucaipa, California",Yucaipa,Yucaipa,CA,San Bernardino,California,34.0336,-117.0429
645,California,Santa Cruz County,CA,"Watsonville, California, Santa Cruz County","Watsonville, California",Watsonville,Watsonville,CA,Santa Cruz,California,36.9206,-121.7708
646,Washington,Benton County,WA,"Richland, Washington, Benton County","Richland, Washington",Richland,Richland,WA,Benton,Washington,46.2824,-119.2939
647,California,Kern County,CA,"Delano, California, Kern County","Delano, California",Delano,Delano,CA,Kern,California,35.7662,-119.2635
648,Illinois,Cook County,IL,"Hoffman Estates, Illinois, Cook County","Hoffman Estates, Illinois",Hoffman Estates,Hoffman Estates,IL,Cook,Illinois,42.064,-88.1468
649,California,Orange County,CA,"Placentia, California, Orange County","Placentia, California",Placentia,Placentia,CA,Orange,California,33.8807,-117.8553
650,New Jersey,Hudson County,NJ,"West New York, New Jersey, Hudson County","West New York, New Jersey",West New York,West New York,NJ,Hudson,New Jersey,40.7857,-74.0094
651,California,Alameda County,CA,"Dublin, California, Alameda County","Dublin, California",Dublin,Dublin,CA,Alameda,California,37.7161,-121.8963
652,Illinois,Cook County,IL,"Oak Park, Illinois, Cook County","Oak Park, Illinois",Oak Park,Oak Park,IL,Cook,Illinois,41.8872,-87.7899
653,Massachusetts,Essex County,MA,"Peabody, Massachusetts, Essex County","Peabody, Massachusetts",Peabody,Peabody,MA,Essex,Massachusetts,42.5335,-70.9725
654,New Jersey,Middlesex County,NJ,"Perth Amboy, New Jersey, Middlesex County","Perth Amboy, New Jersey",Perth Amboy,Perth Amboy,NJ,Middlesex,New Jersey,40.5202,-74.2724
655,Michigan,Calhoun County,MI,"Battle Creek, Michigan, Calhoun County","Battle Creek, Michigan",Battle Creek,Battle Creek,MI,Calhoun,Michigan,42.2985,-85.2296
656,Florida,Manatee County,FL,"Bradenton, Florida, Manatee County","Bradenton, Florida",Bradenton,Bradenton,FL,Manatee,Florida,27.4901,-82.5757
657,California,Santa Clara County,CA,"Gilroy, California, Santa Clara County","Gilroy, California",Gilroy,Gilroy,CA,Santa Clara,California,37.0046,-121.5854
658,Oregon,Linn County,OR,"Albany, Oregon, Linn County","Albany, Oregon",Albany,Albany,OR,Linn,Oregon,44.6272,-123.0965
659,Iowa,Polk County,IA,"Ankeny, Iowa, Polk County","Ankeny, Iowa",Ankeny,Ankeny,IA,Polk,Iowa,41.7288,-93.6031
660,Wisconsin,La Crosse County,WI,"La Crosse, Wisconsin, La Crosse County","La Crosse, Wisconsin",La Crosse,La Crosse,WI,La Crosse,Wisconsin,43.8241,-91.2268
661,North Carolina,Alamance County,NC,"Burlington, North Carolina, Alamance County","Burlington, North Carolina",Burlington,Burlington,NC,Alamance,North Carolina,36.076,-79.4685
662,Minnesota,Hennepin County,MN,"Minnetonka, Minnesota, Hennepin County","Minnetonka, Minnesota",Minnetonka,Minnetonka,MN,Hennepin,Minnesota,44.9322,-93.4598
663,Indiana,Elkhart County,IN,"Elkhart, Indiana, Elkhart County","Elkhart, Indiana",Elkhart,Elkhart,IN,Elkhart,Indiana,41.6916,-85.9627
664,Ohio,Cuyahoga County,OH,"Lakewood, Ohio, Cuyahoga County","Lakewood, Ohio",Lakewood,Lakewood,OH,Cuyahoga,Ohio,41.4822,-81.8008
665,California,Los Angeles County,CA,"Glendora, California, Los Angeles County","Glendora, California",Glendora,Glendora,CA,Los Angeles,California,34.1449,-117.8467
666,Mississippi,DeSoto County,MS,"Southaven, Mississippi, DeSoto County","Southaven, Mississippi",Southaven,Southaven,MS,DeSoto,Mississippi,34.9514,-89.9786
667,West Virginia,Kanawha County,WV,"Charleston, West Virginia, Kanawha County","Charleston, West Virginia",Charleston,Charleston,WV,Kanawha,West Virginia,38.3484,-81.6322
668,Oklahoma,Garfield County,OK,"Enid, Oklahoma, Garfield County","Enid, Oklahoma",Enid,Enid,OK,Garfield,Oklahoma,36.4063,-97.87
669,Florida,Palm Beach County,FL,"Palm Beach Gardens, Florida, Palm Beach County","Palm Beach Gardens, Florida",Palm Beach Gardens,Palm Beach Gardens,FL,Palm Beach,Florida,26.8466,-80.1679
670,New Jersey,Union County,NJ,"Plainfield, New Jersey, Union County","Plainfield, New Jersey",Plainfield,Plainfield,NJ,Union,New Jersey,40.6154,-74.4157
671,Nebraska,Hall County,NE,"Grand Island, Nebraska, Hall County","Grand Island, Nebraska",Grand Island,Grand Island,NE,Hall,Nebraska,40.9218,-98.3586
672,California,Riverside County,CA,"Palm Desert, California, Riverside County","Palm Desert, California",Palm Desert,Palm Desert,CA,Riverside,California,33.7378,-116.3695
673,North Carolina,Mecklenburg County,NC,"Huntersville, North Carolina, Mecklenburg County","Huntersville, North Carolina",Huntersville,Huntersville,NC,Mecklenburg,North Carolina,35.406,-80.8716
674,Oregon,Washington County,OR,"Tigard, Oregon, Washington County","Tigard, Oregon",Tigard,Tigard,OR,Washington,Oregon,45.4237,-122.7845
675,Kansas,Johnson County,KS,"Lenexa, Kansas, Johnson County","Lenexa, Kansas",Lenexa,Lenexa,KS,Johnson,Kansas,38.9609,-94.8018
676,Michigan,Saginaw County,MI,"Saginaw, Michigan, Saginaw County","Saginaw, Michigan",Saginaw,Saginaw,MI,Saginaw,Michigan,43.4199,-83.9501
677,Michigan,Kent County,MI,"Kentwood, Michigan, Kent County","Kentwood, Michigan",Kentwood,Kentwood,MI,Kent,Michigan,42.8852,-85.5926
678,Florida,Miami-Dade County,FL,"Doral, Florida, Miami-Dade County","Doral, Florida",Doral,Doral,FL,Miami-Dade,Florida,25.8152,-80.3565
679,Minnesota,Dakota County,MN,"Apple Valley, Minnesota, Dakota County","Apple Valley, Minnesota",Apple Valley,Apple Valley,MN,Dakota,Minnesota,44.7457,-93.2004
680,Texas,Tarrant County,TX,"Grapevine, Texas, Tarrant County","Grapevine, Texas",Grapevine,Grapevine,TX,Tarrant,Texas,32.9343,-97.0742
681,California,Orange County,CA,"Aliso Viejo, California, Orange County","Aliso Viejo, California",Aliso Viejo,Aliso Viejo,CA,Orange,California,33.5792,-117.7289
682,Washington,King County,WA,"Sammamish, Washington, King County","Sammamish, Washington",Sammamish,Sammamish,WA,King,Washington,47.6017,-122.0416
683,Arizona,Pinal County,AZ,"Casa Grande, Arizona, Pinal County","Casa Grande, Arizona",Casa Grande,Casa Grande,AZ,Pinal,Arizona,32.9069,-111.7624
684,Florida,Pinellas County,FL,"Pinellas Park, Florida, Pinellas County","Pinellas Park, Florida",Pinellas Park,Pinellas Park,FL,Pinellas,Florida,27.8589,-82.7078
685,New York,Rensselaer County,NY,"Troy, New York, Rensselaer County","Troy, New York",Troy,Troy,NY,Rensselaer,New York,42.7354,-73.6751
686,California,Yolo County,CA,"West Sacramento, California, Yolo County","West Sacramento, California",West Sacramento,West Sacramento,CA,Yolo,California,38.5557,-121.5505
687,Washington,King County,WA,"Burien, Washington, King County","Burien, Washington",Burien,Burien,WA,King,Washington,47.4762,-122.3394
688,Colorado,Adams County,CO,"Commerce City, Colorado, Adams County","Commerce City, Colorado",Commerce City,Commerce City,CO,Adams,Colorado,39.8641,-104.843
689,California,Los Angeles County,CA,"Cerritos, California, Los Angeles County","Cerritos, California",Cerritos,Cerritos,CA,Los Angeles,California,33.8678,-118.0686
690,Illinois,DuPage County,IL,"Downers Grove, Illinois, DuPage County","Downers Grove, Illinois",Downers Grove,Downers Grove,IL,DuPage,Illinois,41.7949,-88.0172
691,Florida,Miami-Dade County,FL,"Coral Gables, Florida, Miami-Dade County","Coral Gables, Florida",Coral Gables,Coral Gables,FL,Miami-Dade,Florida,25.7037,-80.2715
692,North Carolina,Wilson County,NC,"Wilson, North Carolina, Wilson County","Wilson, North Carolina",Wilson,Wilson,NC,Wilson,North Carolina,35.7311,-77.9284
693,New York,Niagara County,NY,"Niagara Falls, New York, Niagara County","Niagara Falls, New York",Niagara Falls,Niagara Falls,NY,Niagara,New York,43.0921,-79.0147
694,California,San Diego County,CA,"Poway, California, San Diego County","Poway, California",Poway,Poway,CA,San Diego,California,32.9871,-117.0201
695,Minnesota,Hennepin County,MN,"Edina, Minnesota, Hennepin County","Edina, Minnesota",Edina,Edina,MN,Hennepin,Minnesota,44.8914,-93.3602
696,Ohio,Summit County,OH,"Cuyahoga Falls, Ohio, Summit County","Cuyahoga Falls, Ohio",Cuyahoga Falls,Cuyahoga Falls,OH,Summit,Ohio,41.1641,-81.5207
697,California,Orange County,CA,"Rancho Santa Margarita, California, Orange County","Rancho Santa Margarita, California",Rancho Santa Margarita,Rancho Santa Margarita,CA,Orange,California,33.6318,-117.5988
698,Pennsylvania,Dauphin County,PA,"Harrisburg, Pennsylvania, Dauphin County","Harrisburg, Pennsylvania",Harrisburg,Harrisburg,PA,Dauphin,Pennsylvania,40.2752,-76.8843
699,West Virginia,Cabell County,WV,"Huntington, West Virginia, Cabell County","Huntington, West Virginia",Huntington,Huntington,WV,Cabell,West Virginia,38.4109,-82.4345
700,California,Los Angeles County,CA,"La Mirada, California, Los Angeles County","La Mirada, California",La Mirada,La Mirada,CA,Los Angeles,California,33.9025,-118.0093
701,California,Orange County,CA,"Cypress, California, Orange County","Cypress, California",Cypress,Cypress,CA,Orange,California,33.8171,-118.0386
702,Idaho,Canyon County,ID,"Caldwell, Idaho, Canyon County","Caldwell, Idaho",Caldwell,Caldwell,ID,Canyon,Idaho,43.6453,-116.6594
703,Utah,Cache County,UT,"Logan, Utah, Cache County","Logan, Utah",Logan,Logan,UT,Cache,Utah,41.7399,-111.8422
704,Texas,Galveston County,TX,"Galveston, Texas, Galveston County","Galveston, Texas",Galveston,Galveston,TX,Galveston,Texas,29.2484,-94.8913
705,Wisconsin,Sheboygan County,WI,"Sheboygan, Wisconsin, Sheboygan County","Sheboygan, Wisconsin",Sheboygan,Sheboygan,WI,Sheboygan,Wisconsin,43.7403,-87.7316
706,Ohio,Butler County,OH,"Middletown, Ohio, Butler County","Middletown, Ohio",Middletown,Middletown,OH,Butler,Ohio,39.5033,-84.3659
707,Utah,Salt Lake County,UT,"Murray, Utah, Salt Lake County","Murray, Utah",Murray,Murray,UT,Salt Lake,Utah,40.6498,-111.8874
708,New Mexico,Chaves County,NM,"Roswell, New Mexico, Chaves County","Roswell, New Mexico",Roswell,Roswell,NM,Chaves,New Mexico,33.373,-104.5294
709,Colorado,Douglas County,CO,"Parker, Colorado, Douglas County","Parker, Colorado",Parker,Parker,CO,Douglas,Colorado,39.5084,-104.7753
710,Texas,Tarrant County,TX,"Bedford, Texas, Tarrant County","Bedford, Texas",Bedford,Bedford,TX,Tarrant,Texas,32.8464,-97.135
711,Michigan,Ingham County,MI,"East Lansing, Michigan, Ingham County","East Lansing, Michigan",East Lansing,East Lansing,MI,Ingham,Michigan,42.748,-84.4836
712,California,Los Angeles County,CA,"Covina, California, Los Angeles County","Covina, California",Covina,Covina,CA,Los Angeles,California,34.0903,-117.8818
713,Washington,Thurston County,WA,"Olympia, Washington, Thurston County","Olympia, Washington",Olympia,Olympia,WA,Thurston,Washington,47.0417,-122.8959
714,Ohio,Cuyahoga County,OH,"Euclid, Ohio, Cuyahoga County","Euclid, Ohio",Euclid,Euclid,OH,Cuyahoga,Ohio,41.5903,-81.5188
715,Kansas,Saline County,KS,"Salina, Kansas, Saline County","Salina, Kansas",Salina,Salina,KS,Saline,Kansas,38.8136,-97.6143
716,California,Los Angeles County,CA,"Azusa, California, Los Angeles County","Azusa, California",Azusa,Azusa,CA,Los Angeles,California,34.1386,-117.9124
717,Ohio,Licking County,OH,"Newark, Ohio, Licking County","Newark, Ohio",Newark,Newark,OH,Licking,Ohio,40.0706,-82.425
718,Virginia,Loudoun County,VA,"Leesburg, Virginia, Loudoun County","Leesburg, Virginia",Leesburg,Leesburg,VA,Loudoun,Virginia,39.1057,-77.5544
719,Mississippi,Forrest County,MS,"Hattiesburg, Mississippi, Forrest County","Hattiesburg, Mississippi",Hattiesburg,Hattiesburg,MS,Forrest,Mississippi,31.3074,-89.317
720,Michigan,Macomb County,MI,"Roseville, Michigan, Macomb County","Roseville, Michigan",Roseville,Roseville,MI,Macomb,Michigan,42.5074,-82.9369
721,Florida,Lee County,FL,"Bonita Springs, Florida, Lee County","Bonita Springs, Florida",Bonita Springs,Bonita Springs,FL,Lee,Florida,26.3558,-81.7859
722,Michigan,Kalamazoo County,MI,"Portage, Michigan, Kalamazoo County","Portage, Michigan",Portage,Portage,MI,Kalamazoo,Michigan,42.2,-85.5906
723,Connecticut,Middlesex County,CT,"Middletown, Connecticut, Middlesex County","Middletown, Connecticut",Middletown,Middletown,CT,Middlesex,Connecticut,41.5476,-72.6549
724,Tennessee,Shelby County,TN,"Collierville, Tennessee, Shelby County","Collierville, Tennessee",Collierville,Collierville,TN,Shelby,Tennessee,35.047,-89.6987
725,Oklahoma,Payne County,OK,"Stillwater, Oklahoma, Payne County","Stillwater, Oklahoma",Stillwater,Stillwater,OK,Payne,Oklahoma,36.1317,-97.0742
726,Rhode Island,Providence County,RI,"East Providence, Rhode Island, Providence County","East Providence, Rhode Island",East Providence,East Providence,RI,Providence,Rhode Island,41.8065,-71.3565
727,Indiana,Marion County,IN,"Lawrence, Indiana, Marion County","Lawrence, Indiana",Lawrence,Lawrence,IN,Marion,Indiana,39.8674,-85.9904
728,Wisconsin,Milwaukee County,WI,"Wauwatosa, Wisconsin, Milwaukee County","Wauwatosa, Wisconsin",Wauwatosa,Wauwatosa,WI,Milwaukee,Wisconsin,43.0616,-88.0347
729,Ohio,Lake County,OH,"Mentor, Ohio, Lake County","Mentor, Ohio",Mentor,Mentor,OH,Lake,Ohio,41.6893,-81.3362
730,California,Stanislaus County,CA,"Ceres, California, Stanislaus County","Ceres, California",Ceres,Ceres,CA,Stanislaus,California,37.5952,-120.962
731,Texas,Dallas County,TX,"Cedar Hill, Texas, Dallas County","Cedar Hill, Texas",Cedar Hill,Cedar Hill,TX,Dallas,Texas,32.581,-96.9591
732,Ohio,Richland County,OH,"Mansfield, Ohio, Richland County","Mansfield, Ohio",Mansfield,Mansfield,OH,Richland,Ohio,40.7656,-82.5275
733,Idaho,Kootenai County,ID,"Coeur d'Alene, Idaho, Kootenai County","Coeur d'Alene, Idaho",Coeur d'Alene,Coeur d'Alene,ID,Kootenai,Idaho,47.704,-116.7936
734,California,San Luis Obispo County,CA,"San Luis Obispo, California, San Luis Obispo County","San Luis Obispo, California",San Luis Obispo,San Luis Obispo,CA,San Luis Obispo,California,35.2669,-120.669
735,North Dakota,Ward County,ND,"Minot, North Dakota, Ward County","Minot, North Dakota",Minot,Minot,ND,Ward,North Dakota,48.2375,-101.278
736,California,Riverside County,CA,"Palm Springs, California, Riverside County","Palm Springs, California",Palm Springs,Palm Springs,CA,Riverside,California,33.8017,-116.5382
737,Arkansas,Jefferson County,AR,"Pine Bluff, Arkansas, Jefferson County","Pine Bluff, Arkansas",Pine Bluff,Pine Bluff,AR,Jefferson,Arkansas,34.2116,-92.0173
738,Texas,Galveston County,TX,"Texas City, Texas, Galveston County","Texas City, Texas",Texas City,Texas City,TX,Galveston,Texas,29.4154,-94.9682
739,South Carolina,Dorchester County,SC,"Summerville, South Carolina, Dorchester County","Summerville, South Carolina",Summerville,Summerville,SC,Dorchester,South Carolina,33.0016,-80.1799
740,Idaho,Twin Falls County,ID,"Twin Falls, Idaho, Twin Falls County","Twin Falls, Idaho",Twin Falls,Twin Falls,ID,Twin Falls,Idaho,42.5645,-114.4613
741,Indiana,Clark County,IN,"Jeffersonville, Indiana, Clark County","Jeffersonville, Indiana",Jeffersonville,Jeffersonville,IN,Clark,Indiana,38.3376,-85.7026
742,California,Riverside County,CA,"San Jacinto, California, Riverside County","San Jacinto, California",San Jacinto,San Jacinto,CA,Riverside,California,33.797,-116.9916
743,Pennsylvania,Blair County,PA,"Altoona, Pennsylvania, Blair County","Altoona, Pennsylvania",Altoona,Altoona,PA,Blair,Pennsylvania,40.5082,-78.4007
744,Indiana,Bartholomew County,IN,"Columbus, Indiana, Bartholomew County","Columbus, Indiana",Columbus,Columbus,IN,Bartholomew,Indiana,39.2093,-85.9183
745,Ohio,Greene County,OH,"Beavercreek, Ohio, Greene County","Beavercreek, Ohio",Beavercreek,Beavercreek,OH,Greene,Ohio,39.731,-84.0624
746,Florida,Orange County,FL,"Apopka, Florida, Orange County","Apopka, Florida",Apopka,Apopka,FL,Orange,Florida,28.7015,-81.5316
747,Illinois,DuPage County,IL,"Elmhurst, Illinois, DuPage County","Elmhurst, Illinois",Elmhurst,Elmhurst,IL,DuPage,Illinois,41.8973,-87.9432
748,New Mexico,San Juan County,NM,"Farmington, New Mexico, San Juan County","Farmington, New Mexico",Farmington,Farmington,NM,San Juan,New Mexico,36.7555,-108.1823
749,Illinois,Cook County,IL,"Glenview, Illinois, Cook County","Glenview, Illinois",Glenview,Glenview,IL,Cook,Illinois,42.0825,-87.8214
750,Ohio,Cuyahoga County,OH,"Cleveland Heights, Ohio, Cuyahoga County","Cleveland Heights, Ohio",Cleveland Heights,Cleveland Heights,OH,Cuyahoga,Ohio,41.5113,-81.5636
751,Utah,Salt Lake County,UT,"Draper, Utah, Salt Lake County","Draper, Utah",Draper,Draper,UT,Salt Lake,Utah,40.4957,-111.8605
752,California,Placer County,CA,"Lincoln, California, Placer County","Lincoln, California",Lincoln,Lincoln,CA,Placer,California,38.8774,-121.2937
753,Arizona,Cochise County,AZ,"Sierra Vista, Arizona, Cochise County","Sierra Vista, Arizona",Sierra Vista,Sierra Vista,AZ,Cochise,Arizona,31.563,-110.3153
754,Washington,Thurston County,WA,"Lacey, Washington, Thurston County","Lacey, Washington",Lacey,Lacey,WA,Thurston,Washington,47.0462,-122.7933
755,Mississippi,Harrison County,MS,"Biloxi, Mississippi, Harrison County","Biloxi, Mississippi",Biloxi,Biloxi,MS,Harrison,Mississippi,30.4426,-88.9514
756,Ohio,Cuyahoga County,OH,"Strongsville, Ohio, Cuyahoga County","Strongsville, Ohio",Strongsville,Strongsville,OH,Cuyahoga,Ohio,41.3128,-81.8313
757,Texas,Collin County,TX,"Wylie, Texas, Collin County","Wylie, Texas",Wylie,Wylie,TX,Collin,Texas,33.0362,-96.5161
758,New Jersey,Middlesex County,NJ,"Sayreville, New Jersey, Middlesex County","Sayreville, New Jersey",Sayreville,Sayreville,NJ,Middlesex,New Jersey,40.4656,-74.3237
759,North Carolina,Cabarrus County,NC,"Kannapolis, North Carolina, Cabarrus County","Kannapolis, North Carolina",Kannapolis,Kannapolis,NC,Cabarrus,North Carolina,35.4764,-80.6408
760,Florida,Brevard County,FL,"Titusville, Florida, Brevard County","Titusville, Florida",Titusville,Titusville,FL,Brevard,Florida,28.5727,-80.8193
761,New Jersey,Bergen County,NJ,"Hackensack, New Jersey, Bergen County","Hackensack, New Jersey",Hackensack,Hackensack,NJ,Bergen,New Jersey,40.8891,-74.0462
762,California,Alameda County,CA,"Newark, California, Alameda County","Newark, California",Newark,Newark,CA,Alameda,California,37.5201,-122.0307
763,Massachusetts,Berkshire County,MA,"Pittsfield, Massachusetts, Berkshire County","Pittsfield, Massachusetts",Pittsfield,Pittsfield,MA,Berkshire,Massachusetts,42.4517,-73.2605
764,Pennsylvania,York County,PA,"York, Pennsylvania, York County","York, Pennsylvania",York,York,PA,York,Pennsylvania,39.9651,-76.7315
765,Illinois,DuPage County,IL,"Lombard, Illinois, DuPage County","Lombard, Illinois",Lombard,Lombard,IL,DuPage,Illinois,41.8741,-88.0157
766,Massachusetts,Bristol County,MA,"Attleboro, Massachusetts, Bristol County","Attleboro, Massachusetts",Attleboro,Attleboro,MA,Bristol,Massachusetts,41.9311,-71.295
767,Virginia,Montgomery County,VA,"Blacksburg, Virginia, Montgomery County","Blacksburg, Virginia",Blacksburg,Blacksburg,VA,Montgomery,Virginia,37.23,-80.4279
768,Ohio,Franklin County,OH,"Dublin, Ohio, Franklin County","Dublin, Ohio",Dublin,Dublin,OH,Franklin,Ohio,40.1112,-83.1454
769,Texas,Tarrant County,TX,"Haltom City, Texas, Tarrant County","Haltom City, Texas",Haltom City,Haltom City,TX,Tarrant,Texas,32.8176,-97.2707
770,California,Santa Barbara County,CA,"Lompoc, California, Santa Barbara County","Lompoc, California",Lompoc,Lompoc,CA,Santa Barbara,California,34.6618,-120.4714
771,California,Imperial County,CA,"El Centro, California, Imperial County","El Centro, California",El Centro,El Centro,CA,Imperial,California,32.7865,-115.5595
772,California,Contra Costa County,CA,"Danville, California, Contra Costa County","Danville, California",Danville,Danville,CA,Contra Costa,California,37.8121,-121.9698
773,Missouri,Cole County,MO,"Jefferson City, Missouri, Cole County","Jefferson City, Missouri",Jefferson City,Jefferson City,MO,Cole,Missouri,38.5676,-92.1759
774,Florida,Miami-Dade County,FL,"Cutler Bay, Florida, Miami-Dade County","Cutler Bay, Florida",Cutler Bay,Cutler Bay,FL,Miami-Dade,Florida,25.5765,-80.3356
775,Florida,Broward County,FL,"Oakland Park, Florida, Broward County","Oakland Park, Florida",Oakland Park,Oakland Park,FL,Broward,Florida,26.178,-80.1528
776,Florida,Miami-Dade County,FL,"North Miami Beach, Florida, Miami-Dade County","North Miami Beach, Florida",North Miami Beach,North Miami Beach,FL,Miami-Dade,Florida,25.9302,-80.1659
777,New York,Nassau County,NY,"Freeport, New York, Nassau County","Freeport, New York",Freeport,Freeport,NY,Nassau,New York,40.6515,-73.585
778,Illinois,Rock Island County,IL,"Moline, Illinois, Rock Island County","Moline, Illinois",Moline,Moline,IL,Rock Island,Illinois,41.4821,-90.492
779,California,Riverside County,CA,"Coachella, California, Riverside County","Coachella, California",Coachella,Coachella,CA,Riverside,California,33.6905,-116.143
780,Tennessee,Rutherford County,TN,"Smyrna, Tennessee, Rutherford County","Smyrna, Tennessee",Smyrna,Smyrna,TN,Rutherford,Tennessee,35.9687,-86.5264
781,Utah,Davis County,UT,"Bountiful, Utah, Davis County","Bountiful, Utah",Bountiful,Bountiful,UT,Davis,Utah,40.8721,-111.8647
782,Wisconsin,Fond du Lac County,WI,"Fond du Lac, Wisconsin, Fond du Lac County","Fond du Lac, Wisconsin",Fond du Lac,Fond du Lac,WI,Fond du Lac,Wisconsin,43.7718,-88.4397
783,Massachusetts,Middlesex County,MA,"Everett, Massachusetts, Middlesex County","Everett, Massachusetts",Everett,Everett,MA,Middlesex,Massachusetts,42.4064,-71.0545
784,Texas,Tarrant County,TX,"Keller, Texas, Tarrant County","Keller, Texas",Keller,Keller,TX,Tarrant,Texas,32.9335,-97.2256
785,California,Los Angeles County,CA,"Bell Gardens, California, Los Angeles County","Bell Gardens, California",Bell Gardens,Bell Gardens,CA,Los Angeles,California,33.9663,-118.155
786,Tennessee,Bradley County,TN,"Cleveland, Tennessee, Bradley County","Cleveland, Tennessee",Cleveland,Cleveland,TN,Bradley,Tennessee,35.1817,-84.8707
787,Florida,Broward County,FL,"North Lauderdale, Florida, Broward County","North Lauderdale, Florida",North Lauderdale,North Lauderdale,FL,Broward,Florida,26.2113,-80.2209
788,Ohio,Butler County,OH,"Fairfield, Ohio, Butler County","Fairfield, Ohio",Fairfield,Fairfield,OH,Butler,Ohio,39.3301,-84.5409
789,Massachusetts,Essex County,MA,"Salem, Massachusetts, Essex County","Salem, Massachusetts",Salem,Salem,MA,Essex,Massachusetts,42.5129,-70.9021
790,California,Los Angeles County,CA,"Rancho Palos Verdes, California, Los Angeles County","Rancho Palos Verdes, California",Rancho Palos Verdes,Rancho Palos Verdes,CA,Los Angeles,California,33.7554,-118.3634
791,California,San Mateo County,CA,"San Bruno, California, San Mateo County","San Bruno, California",San Bruno,San Bruno,CA,San Mateo,California,37.6256,-122.4313
792,New Hampshire,Merrimack County,NH,"Concord, New Hampshire, Merrimack County","Concord, New Hampshire",Concord,Concord,NH,Merrimack,New Hampshire,43.2305,-71.5595
793,Vermont,Chittenden County,VT,"Burlington, Vermont, Chittenden County","Burlington, Vermont",Burlington,Burlington,VT,Chittenden,Vermont,44.4876,-73.2316
794,North Carolina,Wake County,NC,"Apex, North Carolina, Wake County","Apex, North Carolina",Apex,Apex,NC,Wake,North Carolina,35.7237,-78.8743
795,Michigan,Midland County,MI,"Midland, Michigan, Midland County","Midland, Michigan",Midland,Midland,MI,Midland,Michigan,43.6241,-84.2319
796,Florida,Seminole County,FL,"Altamonte Springs, Florida, Seminole County","Altamonte Springs, Florida",Altamonte Springs,Altamonte Springs,FL,Seminole,Florida,28.6615,-81.3953
797,Kansas,Reno County,KS,"Hutchinson, Kansas, Reno County","Hutchinson, Kansas",Hutchinson,Hutchinson,KS,Reno,Kansas,38.0671,-97.9081
798,Illinois,Lake County,IL,"Buffalo Grove, Illinois, Lake County","Buffalo Grove, Illinois",Buffalo Grove,Buffalo Grove,IL,Lake,Illinois,42.1675,-87.9615
799,Iowa,Polk County,IA,"Urbandale, Iowa, Polk County","Urbandale, Iowa",Urbandale,Urbandale,IA,Polk,Iowa,41.639,-93.7812
800,Pennsylvania,Centre County,PA,"State College, Pennsylvania, Centre County","State College, Pennsylvania",State College,State College,PA,Centre,Pennsylvania,40.7909,-77.8567
801,Illinois,Champaign County,IL,"Urbana, Illinois, Champaign County","Urbana, Illinois",Urbana,Urbana,IL,Champaign,Illinois,40.1107,-88.1973
802,Illinois,Will County,IL,"Plainfield, Illinois, Will County","Plainfield, Illinois",Plainfield,Plainfield,IL,Will,Illinois,41.6207,-88.2253
803,Illinois,DuPage County,IL,"Bartlett, Illinois, DuPage County","Bartlett, Illinois",Bartlett,Bartlett,IL,DuPage,Illinois,41.9804,-88.2071
804,New Jersey,Hudson County,NJ,"Kearny, New Jersey, Hudson County","Kearny, New Jersey",Kearny,Kearny,NJ,Hudson,New Jersey,40.7528,-74.1202
805,Arizona,Pima County,AZ,"Oro Valley, Arizona, Pima County","Oro Valley, Arizona",Oro Valley,Oro Valley,AZ,Pima,Arizona,32.4208,-110.9767
806,Ohio,Hancock County,OH,"Findlay, Ohio, Hancock County","Findlay, Ohio",Findlay,Findlay,OH,Hancock,Ohio,41.0469,-83.6379
807,California,Sonoma County,CA,"Rohnert Park, California, Sonoma County","Rohnert Park, California",Rohnert Park,Rohnert Park,CA,Sonoma,California,38.3479,-122.6965
808,New Jersey,Union County,NJ,"Linden, New Jersey, Union County","Linden, New Jersey",Linden,Linden,NJ,Union,New Jersey,40.6251,-74.2383
809,Massachusetts,Hampden County,MA,"Westfield, Massachusetts, Hampden County","Westfield, Massachusetts",Westfield,Westfield,MA,Hampden,Massachusetts,42.1382,-72.7561
810,South Carolina,Sumter County,SC,"Sumter, South Carolina, Sumter County","Sumter, South Carolina",Sumter,Sumter,SC,Sumter,South Carolina,33.9392,-80.393
811,Pennsylvania,Luzerne County,PA,"Wilkes-Barre, Pennsylvania, Luzerne County","Wilkes-Barre, Pennsylvania",Wilkes-Barre,Wilkes-Barre,PA,Luzerne,Pennsylvania,41.2469,-75.876
812,Rhode Island,Providence County,RI,"Woonsocket, Rhode Island, Providence County","Woonsocket, Rhode Island",Woonsocket,Woonsocket,RI,Providence,Rhode Island,42.001,-71.4993
813,Massachusetts,Worcester County,MA,"Leominster, Massachusetts, Worcester County","Leominster, Massachusetts",Leominster,Leominster,MA,Worcester,Massachusetts,42.5209,-71.7717
814,Connecticut,Fairfield County,CT,"Shelton, Connecticut, Fairfield County","Shelton, Connecticut",Shelton,Shelton,CT,Fairfield,Connecticut,41.306,-73.1383
815,California,Orange County,CA,"Brea, California, Orange County","Brea, California",Brea,Brea,CA,Orange,California,33.9254,-117.8655
816,Kentucky,Kenton County,KY,"Covington, Kentucky, Kenton County","Covington, Kentucky",Covington,Covington,KY,Kenton,Kentucky,39.0334,-84.5166
817,Texas,Rockwall County,TX,"Rockwall, Texas, Rockwall County","Rockwall, Texas",Rockwall,Rockwall,TX,Rockwall,Texas,32.9169,-96.4374
818,Mississippi,Lauderdale County,MS,"Meridian, Mississippi, Lauderdale County","Meridian, Mississippi",Meridian,Meridian,MS,Lauderdale,Mississippi,32.3846,-88.6896
819,Utah,Salt Lake County,UT,"Riverton, Utah, Salt Lake County","Riverton, Utah",Riverton,Riverton,UT,Salt Lake,Utah,40.5176,-111.9636
820,Illinois,Adams County,IL,"Quincy, Illinois, Adams County","Quincy, Illinois",Quincy,Quincy,IL,Adams,Illinois,39.9336,-91.3799
821,California,Santa Clara County,CA,"Morgan Hill, California, Santa Clara County","Morgan Hill, California",Morgan Hill,Morgan Hill,CA,Santa Clara,California,37.1325,-121.6419
822,Ohio,Trumbull County,OH,"Warren, Ohio, Trumbull County","Warren, Ohio",Warren,Warren,OH,Trumbull,Ohio,41.239,-80.8174
823,Washington,Snohomish County,WA,"Edmonds, Washington, Snohomish County","Edmonds, Washington",Edmonds,Edmonds,WA,Snohomish,Washington,47.8115,-122.3533
824,Texas,Johnson County,TX,"Burleson, Texas, Johnson County","Burleson, Texas",Burleson,Burleson,TX,Johnson,Texas,32.517,-97.3344
825,Massachusetts,Essex County,MA,"Beverly, Massachusetts, Essex County","Beverly, Massachusetts",Beverly,Beverly,MA,Essex,Massachusetts,42.5681,-70.8627
826,Minnesota,Blue Earth County,MN,"Mankato, Minnesota, Blue Earth County","Mankato, Minnesota",Mankato,Mankato,MN,Blue Earth,Minnesota,44.1715,-93.9772
827,Maryland,Washington County,MD,"Hagerstown, Maryland, Washington County","Hagerstown, Maryland",Hagerstown,Hagerstown,MD,Washington,Maryland,39.6401,-77.7217
828,Arizona,Yavapai County,AZ,"Prescott, Arizona, Yavapai County","Prescott, Arizona",Prescott,Prescott,AZ,Yavapai,Arizona,34.5849,-112.4473
829,California,Santa Clara County,CA,"Campbell, California, Santa Clara County","Campbell, California",Campbell,Campbell,CA,Santa Clara,California,37.2802,-121.9539
830,Iowa,Black Hawk County,IA,"Cedar Falls, Iowa, Black Hawk County","Cedar Falls, Iowa",Cedar Falls,Cedar Falls,IA,Black Hawk,Iowa,42.5195,-92.4536
831,California,Riverside County,CA,"Beaumont, California, Riverside County","Beaumont, California",Beaumont,Beaumont,CA,Riverside,California,33.9076,-116.9766
832,California,Los Angeles County,CA,"La Puente, California, Los Angeles County","La Puente, California",La Puente,La Puente,CA,Los Angeles,California,34.0323,-117.9533
833,Illinois,McHenry County,IL,"Crystal Lake, Illinois, McHenry County","Crystal Lake, Illinois",Crystal Lake,Crystal Lake,IL,McHenry,Illinois,42.2333,-88.3351
834,Massachusetts,Worcester County,MA,"Fitchburg, Massachusetts, Worcester County","Fitchburg, Massachusetts",Fitchburg,Fitchburg,MA,Worcester,Massachusetts,42.5912,-71.8156
835,Illinois,DuPage County,IL,"Carol Stream, Illinois, DuPage County","Carol Stream, Illinois",Carol Stream,Carol Stream,IL,DuPage,Illinois,41.9181,-88.1307
836,North Carolina,Catawba County,NC,"Hickory, North Carolina, Catawba County","Hickory, North Carolina",Hickory,Hickory,NC,Catawba,North Carolina,35.741,-81.3223
837,Illinois,Cook County,IL,"Streamwood, Illinois, Cook County","Streamwood, Illinois",Streamwood,Streamwood,IL,Cook,Illinois,42.0209,-88.1779
838,Connecticut,New London County,CT,"Norwich, Connecticut, New London County","Norwich, Connecticut",Norwich,Norwich,CT,New London,Connecticut,41.5495,-72.0882
839,Texas,Dallas County,TX,"Coppell, Texas, Dallas County","Coppell, Texas",Coppell,Coppell,TX,Dallas,Texas,32.9639,-96.9903
840,California,Los Angeles County,CA,"San Gabriel, California, Los Angeles County","San Gabriel, California",San Gabriel,San Gabriel,CA,Los Angeles,California,34.0949,-118.099
841,Massachusetts,Hampden County,MA,"Holyoke, Massachusetts, Hampden County","Holyoke, Massachusetts",Holyoke,Holyoke,MA,Hampden,Massachusetts,42.2125,-72.6411
842,Arkansas,Benton County,AR,"Bentonville, Arkansas, Benton County","Bentonville, Arkansas",Bentonville,Bentonville,AR,Benton,Arkansas,36.3547,-94.2305
843,Georgia,Gwinnett County,GA,"Peachtree Corners, Georgia, Gwinnett County","Peachtree Corners, Georgia",Peachtree Corners,Peachtree Corners,GA,Gwinnett,Georgia,33.967,-84.232
844,Alabama,Lauderdale County,AL,"Florence, Alabama, Lauderdale County","Florence, Alabama",Florence,Florence,AL,Lauderdale,Alabama,34.8303,-87.6655
845,Tennessee,Williamson County,TN,"Brentwood, Tennessee, Williamson County","Brentwood, Tennessee",Brentwood,Brentwood,TN,Williamson,Tennessee,35.9918,-86.7758
846,Montana,Gallatin County,MT,"Bozeman, Montana, Gallatin County","Bozeman, Montana",Bozeman,Bozeman,MT,Gallatin,Montana,45.6833,-111.0558
847,Wisconsin,Waukesha County,WI,"New Berlin, Wisconsin, Waukesha County","New Berlin, Wisconsin",New Berlin,New Berlin,WI,Waukesha,Wisconsin,42.9726,-88.1291
848,South Carolina,Berkeley County,SC,"Goose Creek, South Carolina, Berkeley County","Goose Creek, South Carolina",Goose Creek,Goose Creek,SC,Berkeley,South Carolina,32.9927,-80.0055
849,Texas,Walker County,TX,"Huntsville, Texas, Walker County","Huntsville, Texas",Huntsville,Huntsville,TX,Walker,Texas,30.7009,-95.5567
850,Arizona,Yavapai County,AZ,"Prescott Valley, Arizona, Yavapai County","Prescott Valley, Arizona",Prescott Valley,Prescott Valley,AZ,Yavapai,Arizona,34.598,-112.3185
851,Minnesota,Ramsey County,MN,"Maplewood, Minnesota, Ramsey County","Maplewood, Minnesota",Maplewood,Maplewood,MN,Ramsey,Minnesota,44.9842,-93.0247
852,Illinois,Will County,IL,"Romeoville, Illinois, Will County","Romeoville, Illinois",Romeoville,Romeoville,IL,Will,Illinois,41.6318,-88.0997
853,Texas,Dallas County,TX,"Duncanville, Texas, Dallas County","Duncanville, Texas",Duncanville,Duncanville,TX,Dallas,Texas,32.646,-96.9127
854,New Jersey,Atlantic County,NJ,"Atlantic City, New Jersey, Atlantic County","Atlantic City, New Jersey",Atlantic City,Atlantic City,NJ,Atlantic,New Jersey,39.3797,-74.4527
855,New Mexico,Curry County,NM,"Clovis, New Mexico, Curry County","Clovis, New Mexico",Clovis,Clovis,NM,Curry,New Mexico,34.4376,-103.1923
856,Texas,Denton County,TX,"The Colony, Texas, Denton County","The Colony, Texas",The Colony,The Colony,TX,Denton,Texas,33.0925,-96.8976
857,California,Los Angeles County,CA,"Culver City, California, Los Angeles County","Culver City, California",Culver City,Culver City,CA,Los Angeles,California,34.0058,-118.3968
858,Massachusetts,Middlesex County,MA,"Marlborough, Massachusetts, Middlesex County","Marlborough, Massachusetts",Marlborough,Marlborough,MA,Middlesex,Massachusetts,42.3494,-71.5468
859,South Carolina,Beaufort County,SC,"Hilton Head Island, South Carolina, Beaufort County","Hilton Head Island, South Carolina",Hilton Head Island,Hilton Head Island,SC,Beaufort,South Carolina,32.1896,-80.7499
860,Minnesota,Clay County,MN,"Moorhead, Minnesota, Clay County","Moorhead, Minnesota",Moorhead,Moorhead,MN,Clay,Minnesota,46.8673,-96.7461
861,California,Imperial County,CA,"Calexico, California, Imperial County","Calexico, California",Calexico,Calexico,CA,Imperial,California,32.6849,-115.4944
862,Arizona,Mohave County,AZ,"Bullhead City, Arizona, Mohave County","Bullhead City, Arizona",Bullhead City,Bullhead City,AZ,Mohave,Arizona,35.1205,-114.5461
863,Tennessee,Shelby County,TN,"Germantown, Tennessee, Shelby County","Germantown, Tennessee",Germantown,Germantown,TN,Shelby,Tennessee,35.0829,-89.7824
864,California,Riverside County,CA,"La Quinta, California, Riverside County","La Quinta, California",La Quinta,La Quinta,CA,Riverside,California,33.6536,-116.2785
865,Ohio,Fairfield County,OH,"Lancaster, Ohio, Fairfield County","Lancaster, Ohio",Lancaster,Lancaster,OH,Fairfield,Ohio,39.7248,-82.6049
866,Wisconsin,Marathon County,WI,"Wausau, Wisconsin, Marathon County","Wausau, Wisconsin",Wausau,Wausau,WI,Marathon,Wisconsin,44.962,-89.6459
867,Texas,Grayson County,TX,"Sherman, Texas, Grayson County","Sherman, Texas",Sherman,Sherman,TX,Grayson,Texas,33.6273,-96.6221
868,Florida,Orange County,FL,"Ocoee, Florida, Orange County","Ocoee, Florida",Ocoee,Ocoee,FL,Orange,Florida,28.5796,-81.5332
869,Minnesota,Scott County,MN,"Shakopee, Minnesota, Scott County","Shakopee, Minnesota",Shakopee,Shakopee,MN,Scott,Minnesota,44.7745,-93.4772
870,Massachusetts,Middlesex County,MA,"Woburn, Massachusetts, Middlesex County","Woburn, Massachusetts",Woburn,Woburn,MA,Middlesex,Massachusetts,42.4869,-71.1543
871,Washington,Kitsap County,WA,"Bremerton, Washington, Kitsap County","Bremerton, Washington",Bremerton,Bremerton,WA,Kitsap,Washington,47.5436,-122.7121
872,Illinois,Rock Island County,IL,"Rock Island, Illinois, Rock Island County","Rock Island, Illinois",Rock Island,Rock Island,IL,Rock Island,Illinois,41.4699,-90.5827
873,Oklahoma,Muskogee County,OK,"Muskogee, Oklahoma, Muskogee County","Muskogee, Oklahoma",Muskogee,Muskogee,OK,Muskogee,Oklahoma,35.7432,-95.3567
874,Missouri,Cape Girardeau County,MO,"Cape Girardeau, Missouri, Cape Girardeau County","Cape Girardeau, Missouri",Cape Girardeau,Cape Girardeau,MO,Cape Girardeau,Missouri,37.3109,-89.5597
875,Maryland,Anne Arundel County,MD,"Annapolis, Maryland, Anne Arundel County","Annapolis, Maryland",Annapolis,Annapolis,MD,Anne Arundel,Maryland,38.9706,-76.5047
876,Florida,Palm Beach County,FL,"Greenacres, Florida, Palm Beach County","Greenacres, Florida",Greenacres,Greenacres,FL,Palm Beach,Florida,26.627,-80.1371
877,Florida,Volusia County,FL,"Ormond Beach, Florida, Volusia County","Ormond Beach, Florida",Ormond Beach,Ormond Beach,FL,Volusia,Florida,29.2985,-81.1014
878,California,Orange County,CA,"Stanton, California, Orange County","Stanton, California",Stanton,Stanton,CA,Orange,California,33.8003,-117.9935
879,Washington,Pierce County,WA,"Puyallup, Washington, Pierce County","Puyallup, Washington",Puyallup,Puyallup,WA,Pierce,Washington,47.1793,-122.2902
880,California,San Mateo County,CA,"Pacifica, California, San Mateo County","Pacifica, California",Pacifica,Pacifica,CA,San Mateo,California,37.6113,-122.4782
881,Illinois,DuPage County,IL,"Hanover Park, Illinois, DuPage County","Hanover Park, Illinois",Hanover Park,Hanover Park,IL,DuPage,Illinois,41.9818,-88.1446
882,Texas,Tarrant County,TX,"Hurst, Texas, Tarrant County","Hurst, Texas",Hurst,Hurst,TX,Tarrant,Texas,32.8353,-97.1809
883,Ohio,Allen County,OH,"Lima, Ohio, Allen County","Lima, Ohio",Lima,Lima,OH,Allen,Ohio,40.741,-84.112
884,Arizona,Pima County,AZ,"Marana, Arizona, Pima County","Marana, Arizona",Marana,Marana,AZ,Pima,Arizona,32.4355,-111.1558
885,Illinois,Kane County,IL,"Carpentersville, Illinois, Kane County","Carpentersville, Illinois",Carpentersville,Carpentersville,IL,Kane,Illinois,42.1227,-88.2896
886,California,Contra Costa County,CA,"Oakley, California, Contra Costa County","Oakley, California",Oakley,Oakley,CA,Contra Costa,California,37.9929,-121.6952
887,Ohio,Montgomery County,OH,"Huber Heights, Ohio, Montgomery County","Huber Heights, Ohio",Huber Heights,Huber Heights,OH,Montgomery,Ohio,39.8595,-84.113
888,Texas,Dallas County,TX,"Lancaster, Texas, Dallas County","Lancaster, Texas",Lancaster,Lancaster,TX,Dallas,Texas,32.5922,-96.7739
889,California,San Bernardino County,CA,"Montclair, California, San Bernardino County","Montclair, California",Montclair,Montclair,CA,San Bernardino,California,34.0715,-117.6981
890,Illinois,Cook County,IL,"Wheeling, Illinois, Cook County","Wheeling, Illinois",Wheeling,Wheeling,IL,Cook,Illinois,42.1308,-87.924
891,Wisconsin,Waukesha County,WI,"Brookfield, Wisconsin, Waukesha County","Brookfield, Wisconsin",Brookfield,Brookfield,WI,Waukesha,Wisconsin,43.064,-88.1231
892,Illinois,Cook County,IL,"Park Ridge, Illinois, Cook County","Park Ridge, Illinois",Park Ridge,Park Ridge,IL,Cook,Illinois,42.0125,-87.8436
893,South Carolina,Florence County,SC,"Florence, South Carolina, Florence County","Florence, South Carolina",Florence,Florence,SC,Florence,South Carolina,34.178,-79.7898
894,Utah,Weber County,UT,"Roy, Utah, Weber County","Roy, Utah",Roy,Roy,UT,Weber,Utah,41.1714,-112.0485
895,Florida,Orange County,FL,"Winter Garden, Florida, Orange County","Winter Garden, Florida",Winter Garden,Winter Garden,FL,Orange,Florida,28.5421,-81.5967
896,Massachusetts,Suffolk County,MA,"Chelsea, Massachusetts, Suffolk County","Chelsea, Massachusetts",Chelsea,Chelsea,MA,Suffolk,Massachusetts,42.3959,-71.0325
897,New York,Nassau County,NY,"Valley Stream, New York, Nassau County","Valley Stream, New York",Valley Stream,Valley Stream,NY,Nassau,New York,40.6647,-73.7043
898,South Carolina,Spartanburg County,SC,"Spartanburg, South Carolina, Spartanburg County","Spartanburg, South Carolina",Spartanburg,Spartanburg,SC,Spartanburg,South Carolina,34.9442,-81.9251
899,Oregon,Clackamas County,OR,"Lake Oswego, Oregon, Clackamas County","Lake Oswego, Oregon",Lake Oswego,Lake Oswego,OR,Clackamas,Oregon,45.4129,-122.7004
900,Texas,Galveston County,TX,"Friendswood, Texas, Galveston County","Friendswood, Texas",Friendswood,Friendswood,TX,Galveston,Texas,29.511,-95.1981
901,Colorado,Adams County,CO,"Northglenn, Colorado, Adams County","Northglenn, Colorado",Northglenn,Northglenn,CO,Adams,Colorado,39.9108,-104.9783
902,Alabama,Russell County,AL,"Phenix City, Alabama, Russell County","Phenix City, Alabama",Phenix City,Phenix City,AL,Russell,Alabama,32.4585,-85.0253
903,Ohio,Franklin County,OH,"Grove City, Ohio, Franklin County","Grove City, Ohio",Grove City,Grove City,OH,Franklin,Ohio,39.8654,-83.069
904,Texas,Bowie County,TX,"Texarkana, Texas, Bowie County","Texarkana, Texas",Texarkana,Texarkana,TX,Bowie,Texas,33.45,-94.0847
905,Illinois,DuPage County,IL,"Addison, Illinois, DuPage County","Addison, Illinois",Addison,Addison,IL,DuPage,Illinois,41.9313,-88.0085
906,Delaware,Kent County,DE,"Dover, Delaware, Kent County","Dover, Delaware",Dover,Dover,DE,Kent,Delaware,39.161,-75.5202
907,Michigan,Wayne County,MI,"Lincoln Park, Michigan, Wayne County","Lincoln Park, Michigan",Lincoln Park,Lincoln Park,MI,Wayne,Michigan,42.2432,-83.1811
908,Illinois,Cook County,IL,"Calumet City, Illinois, Cook County","Calumet City, Illinois",Calumet City,Calumet City,IL,Cook,Illinois,41.6134,-87.5505
909,Michigan,Muskegon County,MI,"Muskegon, Michigan, Muskegon County","Muskegon, Michigan",Muskegon,Muskegon,MI,Muskegon,Michigan,43.2281,-86.2562
910,Florida,Miami-Dade County,FL,"Aventura, Florida, Miami-Dade County","Aventura, Florida",Aventura,Aventura,FL,Miami-Dade,Florida,25.9566,-80.1371
911,California,Contra Costa County,CA,"Martinez, California, Contra Costa County","Martinez, California",Martinez,Martinez,CA,Contra Costa,California,37.9985,-122.1161
912,Wisconsin,Milwaukee County,WI,"Greenfield, Wisconsin, Milwaukee County","Greenfield, Wisconsin",Greenfield,Greenfield,WI,Milwaukee,Wisconsin,42.9619,-88.0052
913,California,Los Angeles County,CA,"Monrovia, California, Los Angeles County","Monrovia, California",Monrovia,Monrovia,CA,Los Angeles,California,34.165,-117.9921
914,Texas,Hidalgo County,TX,"Weslaco, Texas, Hidalgo County","Weslaco, Texas",Weslaco,Weslaco,TX,Hidalgo,Texas,26.1599,-97.9877
915,Oregon,Marion County,OR,"Keizer, Oregon, Marion County","Keizer, Oregon",Keizer,Keizer,OR,Marion,Oregon,45.0028,-123.0243
916,Utah,Utah County,UT,"Spanish Fork, Utah, Utah County","Spanish Fork, Utah",Spanish Fork,Spanish Fork,UT,Utah,Utah,40.1101,-111.6405
917,Wisconsin,Rock County,WI,"Beloit, Wisconsin, Rock County","Beloit, Wisconsin",Beloit,Beloit,WI,Rock,Wisconsin,42.523,-89.0184
918,Florida,Bay County,FL,"Panama City, Florida, Bay County","Panama City, Florida",Panama City,Panama City,FL,Bay,Florida,30.1995,-85.6003
